"_IDOBJ","NOM_COMPLET","THEME","LIBTHEME","CATEGORIE","LIBCATEGORIE","TYPE","LIBTYPE","STATUT","COMMUNE","ADRESSE","TELEPHONE","WEB","CODE_POSTAL","location"
"3556","P+R TER Gare de Couëron","10","DEPLACEMENT","1002","Parc Relais","100203","Libre","Non Renseigné","COUERON","Rue de la Gare","02 40 44 44 44","www.tan.fr","44220","[ 47.2217771934083 , -1.72363750160792]"
"3558","P+R tramway Neustrie 2","10","DEPLACEMENT","1002","Parc Relais","100202","Enclos","Non Renseigné","BOUGUENAIS","Rue de la Neustrie","02 40 44 44 44","www.tan.fr","44340","[ 47.176672451111 , -1.59339969648243]"
"3560","P+R navibus Trentemoult-Roquios","10","DEPLACEMENT","1002","Parc Relais","100203","Libre","Non Renseigné","REZE","Quai Surcouf","02 40 44 44 44","www.tan.fr","44400","[ 47.1952525112789 , -1.57778393206355]"
"3561","P+R TER Gare de Basse-Indre Sud","10","DEPLACEMENT","1002","Parc Relais","100203","Libre","Non Renseigné","ST-HERBLAIN","Rue de la Gare","02 40 44 44 44","www.tan.fr","44800","[ 47.2041579741319 , -1.66103809646199]"
"3562","P+R tramway Neustrie 1","10","DEPLACEMENT","1002","Parc Relais","100202","Enclos","Non Renseigné","BOUGUENAIS","Chemin de la Neustrie","02 40 44 44 44","www.tan.fr","44340","[ 47.1754532342509 , -1.59309648041537]"
"3564","P+R TER de Thouaré-sur_Loire","10","DEPLACEMENT","1002","Parc Relais","100203","Libre","Non Renseigné","THOUARE-SUR-LOIRE","Rue des Ponts","02 40 44 44 44","www.tan.fr","44470","[ 47.2647119908848 , -1.4413893536783]"
"3565","P+R TER Gare de Mauves-sur-Loire","10","DEPLACEMENT","1002","Parc Relais","100203","Libre","Non Renseigné","MAUVES-SUR-LOIRE","2 Place de la Gare","02 40 44 44 44","www.tan.fr","44470","[ 47.2932583339329 , -1.388904886686]"
"3566","P+R TER Gare de Bouaye","10","DEPLACEMENT","1002","Parc Relais","100203","Libre","Non Renseigné","BOUAYE","Allée Louis Armand","02 40 44 44 44","www.tan.fr","44830","[ 47.1383223686803 , -1.68257543659362]"
"3582","P+R navibus Trentemoult-Dépôt","10","DEPLACEMENT","1002","Parc Relais","100203","Libre","Non Renseigné","REZE","Rue Ordronneau","02 40 44 44 44","www.tan.fr","44400","[ 47.1919649895095 , -1.58068768637466]"
"3583","P+R tramway Morlière Paquelais","10","DEPLACEMENT","1002","Parc Relais","100203","Libre","Non Renseigné","ORVAULT","Avenue de la Paquelais","02 40 44 44 44","www.tan.fr","44700","[ 47.2478235218625 , -1.60283874722482]"
"3584","P+R tramway Orvault Morlière","10","DEPLACEMENT","1002","Parc Relais","100201","Ouvrage","Non Renseigné","ORVAULT","Avenue de la Morlière","02 40 44 44 44","www.tan.fr","44700","[ 47.2467766477065 , -1.60304946676259]"
"3586","P+R tramway Beauséjour","10","DEPLACEMENT","1002","Parc Relais","100203","Libre","Non Renseigné","NANTES","Route de Vannes","02 40 44 44 44","www.tan.fr","44100","[ 47.2384135213971 , -1.5873437488368]"
"3589","Parking Gare Sud 2","10","DEPLACEMENT","1005","Parc en Enclos","","","Non Renseigné","NANTES","Quai Malakoff","08 25 88 88 26","www.resaplace.com","44000","[ 47.2142340366163 , -1.54134337584288]"
"3590","Parking Gare Sud 2 limité 1h","10","DEPLACEMENT","1005","Parc en Enclos","","","Non Renseigné","NANTES","Quai Malakoff","08 25 88 88 26","www.resaplace.com","44000","[ 47.2152021232956 , -1.54267513884661]"
"3627","P+R busway Porte de Vertou","10","DEPLACEMENT","1002","Parc Relais","100202","Enclos","Non Renseigné","VERTOU","Boulevard Auguste Priou","02 40 44 44 44","www.tan.fr","44120","[ 47.1801752959869 , -1.50516017764927]"
"3628","P+R busway Gréneraie","10","DEPLACEMENT","1002","Parc Relais","100202","Enclos","Non Renseigné","NANTES","Route de Saint Sébastien","02 40 44 44 44","www.tan.fr","44200","[ 47.2001390392692 , -1.53333362324729]"
"3629","P+R busway Bourdonnières 1","10","DEPLACEMENT","1002","Parc Relais","100202","Enclos","Non Renseigné","NANTES","Rue des Bourdonnières","02 40 44 44 44","www.tan.fr","44200","[ 47.1859742120476 , -1.52133747737003]"
"3630","P+R busway Chapeau Verni","10","DEPLACEMENT","1002","Parc Relais","100202","Enclos","Non Renseigné","ST-SEBASTIEN","Route de Clisson","02 40 44 44 44","www.tan.fr","44230","[ 47.1894575221521 , -1.51151075562911]"
"3648","P+R TER Gare de Pont-Rousseau","10","DEPLACEMENT","1002","Parc Relais","100202","Enclos","Non Renseigné","REZE","Avenue de la Libération","02 40 44 44 44","www.tan.fr","44400","[ 47.1925010229049 , -1.54828253376638]"
"3649","P+R tramway Bignon","10","DEPLACEMENT","1002","Parc Relais","100203","Libre","Non Renseigné","ORVAULT","Rue des Verts Prés","02 40 44 44 44","www.tan.fr","44700","[ 47.2489752466115 , -1.59820022515513]"
"3650","Parking Bellamy","10","DEPLACEMENT","1005","Parc en Enclos","","","Non Renseigné","NANTES","Impasse de la Courtine","02 51 84 94 51","www.parkings-nantes.fr","44000","[ 47.2223604161017 , -1.55769369256355]"
"3651","Parking CHU 1","10","DEPLACEMENT","1005","Parc en Enclos","","","Non Renseigné","NANTES","Quai de Tourville","02 51 84 94 51","www.parkings-nantes.fr","44000","[ 47.2093619715999 , -1.55725023399242]"
"3652","Parking Cathédrale","10","DEPLACEMENT","1001","Parking Ouvrage","100101","Souterrain","Non Renseigné","NANTES","Rue Sully","02 51 84 94 51","www.parkings-nantes.fr","44000","[ 47.2208133510721 , -1.55105616832611]"
"3655","P+R busway Maraîchers","10","DEPLACEMENT","1002","Parc Relais","100203","Libre","Non Renseigné","VERTOU","Rue de la Grand' Maison","02 40 44 44 44","www.tan.fr","44120","[ 47.1851690235263 , -1.51067420037066]"
"3685","1 Station Abonnement Préfecture","10","DEPLACEMENT","1006","Vélo","100601","Bicloo","Non Renseigné","NANTES","6 Quai Ceineray","01 30 79 33 44","www.bicloo.nantesmetropole.fr","44000","[ 47.2202763442702 , -1.55407090754939]"
"3686","2 Station Accueil Hôtel de Ville","10","DEPLACEMENT","1006","Vélo","100601","Bicloo","Non Renseigné","NANTES","29 Rue de Strasbourg","01 30 79 33 44","www.bicloo.nantesmetropole.fr","44000","[ 47.2185640015645 , -1.55354426853678]"
"3687","3 Station Accueil Strasbourg","10","DEPLACEMENT","1006","Vélo","100601","Bicloo","Non Renseigné","NANTES","6 Rue des Carmélites","01 30 79 33 44","www.bicloo.nantesmetropole.fr","44000","[ 47.216532854728 , -1.55161756498412]"
"3688","4 Station Accueil Moulin","10","DEPLACEMENT","1006","Vélo","100601","Bicloo","Non Renseigné","NANTES","18 Rue du Moulin","01 30 79 33 44","www.bicloo.nantesmetropole.fr","44000","[ 47.2166468712003 , -1.55442584710721]"
"3689","5 Station Accueil Brossard","10","DEPLACEMENT","1006","Vélo","100601","Bicloo","Non Renseigné","NANTES","13 Allée Duquesne","01 30 79 33 44","www.bicloo.nantesmetropole.fr","44000","[ 47.2188380915037 , -1.55677730034727]"
"3690","6 Station Abonnement Place du Cirque","10","DEPLACEMENT","1006","Vélo","100601","Bicloo","Non Renseigné","NANTES","7 Allée Duquesne","01 30 79 33 44","www.bicloo.nantesmetropole.fr","44000","[ 47.217604415335 , -1.55695366059999]"
"3691","7 Station Accueil Barillerie","10","DEPLACEMENT","1006","Vélo","100601","Bicloo","Non Renseigné","NANTES","2 Allée Penthiévre","01 30 79 33 44","www.bicloo.nantesmetropole.fr","44000","[ 47.2154096299385 , -1.5561003799956]"
"3692","8 Station Abonnement Boucherie","10","DEPLACEMENT","1006","Vélo","100601","Bicloo","Non Renseigné","NANTES","4 Rue de Feltre","01 30 79 33 44","www.bicloo.nantesmetropole.fr","44000","[ 47.2162104462631 , -1.55713447812337]"
"3693","9 Station Accueil Guépin","10","DEPLACEMENT","1006","Vélo","100601","Bicloo","Non Renseigné","NANTES","2 Place du Bon Pasteur","01 30 79 33 44","www.bicloo.nantesmetropole.fr","44000","[ 47.2158349069183 , -1.559060428973]"
"3695","11 Station Accueil Calvaire","10","DEPLACEMENT","1006","Vélo","100601","Bicloo","Non Renseigné","NANTES","Place des Volontaires de la Défense Passive","01 30 79 33 44","www.bicloo.nantesmetropole.fr","44000","[ 47.2155886269499 , -1.56071869453248]"
"3696","12 Station Abonnement et Bonus Place Delorme","10","DEPLACEMENT","1006","Vélo","100601","Bicloo","Non Renseigné","NANTES","1 Boulevard Gabriel Guist'Hau","01 30 79 33 44","www.bicloo.nantesmetropole.fr","44000","[ 47.2151581344299 , -1.56396356682832]"
"3697","13 Station Abonnement et Bonus Bretagne Sud","10","DEPLACEMENT","1006","Vélo","100601","Bicloo","Non Renseigné","NANTES","1 Rue Pierre Chéreau","01 30 79 33 44","www.bicloo.nantesmetropole.fr","44000","[ 47.2167962109988 , -1.55918288617231]"
"3699","15 Station Accueil Place Aristide Briand","10","DEPLACEMENT","1006","Vélo","100601","Bicloo","Non Renseigné","NANTES","Place Aristide Briand","01 30 79 33 44","www.bicloo.nantesmetropole.fr","44000","[ 47.2171962876433 , -1.56300550348212]"
"3700","16 Station Accueil Place Edouard Normand","10","DEPLACEMENT","1006","Vélo","100601","Bicloo","Non Renseigné","NANTES","7 Place Edouard Normand","01 30 79 33 44","www.bicloo.nantesmetropole.fr","44000","[ 47.2190280325433 , -1.56349473337675]"
"3701","17 Station Accueil Sainte Elisabeth","10","DEPLACEMENT","1006","Vélo","100601","Bicloo","Non Renseigné","NANTES","3 Place Sainte Elisabeth","01 30 79 33 44","www.bicloo.nantesmetropole.fr","44000","[ 47.219225442242 , -1.56158876841816]"
"3702","18 Station Abonnement et Bonus Place Viarme","10","DEPLACEMENT","1006","Vélo","100601","Bicloo","Non Renseigné","NANTES","23 Place Viarme","01 30 79 33 44","www.bicloo.nantesmetropole.fr","44000","[ 47.2214408780072 , -1.56332698114374]"
"3703","19 Station Accueil Saint Similien","10","DEPLACEMENT","1006","Vélo","100601","Bicloo","Non Renseigné","NANTES","4 Place Saint Similien","01 30 79 33 44","www.bicloo.nantesmetropole.fr","44000","[ 47.219835952652 , -1.55892890964265]"
"3704","20 Station Abonnement Bellamy","10","DEPLACEMENT","1006","Vélo","100601","Bicloo","Non Renseigné","NANTES","27 Rue Paul Bellamy","01 30 79 33 44","www.bicloo.nantesmetropole.fr","44000","[ 47.2229117954064 , -1.55724358606304]"
"3705","21 Station Accueil Marché de Talensac Sud","10","DEPLACEMENT","1006","Vélo","100601","Bicloo","Non Renseigné","NANTES","6 Rue de Talensac","01 30 79 33 44","www.bicloo.nantesmetropole.fr","44000","[ 47.221154818394 , -1.55649477179845]"
"3706","22 Station Accueil Moquechien","10","DEPLACEMENT","1006","Vélo","100601","Bicloo","Non Renseigné","NANTES","8 Rue Moquechien","01 30 79 33 44","www.bicloo.nantesmetropole.fr","44000","[ 47.2203790474815 , -1.55558297927192]"
"3707","23 Station Accueil Buat","10","DEPLACEMENT","1006","Vélo","100601","Bicloo","Non Renseigné","NANTES","101 Rue Général Buat","01 30 79 33 44","www.bicloo.nantesmetropole.fr","44000","[ 47.2271569726 , -1.54242264341268]"
"3708","24 Station Accueil Versailles","10","DEPLACEMENT","1006","Vélo","100601","Bicloo","Non Renseigné","NANTES","27B Quai de Versailles","01 30 79 33 44","www.bicloo.nantesmetropole.fr","44000","[ 47.2245244088152 , -1.553736963561]"
"3709","25 Station Abonnement Dalby","10","DEPLACEMENT","1006","Vélo","100601","Bicloo","Non Renseigné","NANTES","Boulevard Ernest Dalby","01 30 79 33 44","www.bicloo.nantesmetropole.fr","44000","[ 47.2236126488755 , -1.53010845738847]"
"3710","27 Station Accueil Guist'hau Nord","10","DEPLACEMENT","1006","Vélo","100601","Bicloo","Non Renseigné","NANTES","44 Boulevard Gabriel Guist'Hau","01 30 79 33 44","www.bicloo.nantesmetropole.fr","44000","[ 47.2179401852254 , -1.56926720618524]"
"3711","26 Station Abonnement et Bonus Guist'hau Sud","10","DEPLACEMENT","1006","Vélo","100601","Bicloo","Non Renseigné","NANTES","26T Boulevard Gabriel Guist'Hau","01 30 79 33 44","www.bicloo.nantesmetropole.fr","44000","[ 47.2168394453051 , -1.56702335731262]"
"3712","28 Station Accueil Place de l'Edit de Nantes","10","DEPLACEMENT","1006","Vélo","100601","Bicloo","Non Renseigné","NANTES","Place de l'Edit de Nantes","01 30 79 33 44","www.bicloo.nantesmetropole.fr","44100","[ 47.2144590279511 , -1.56761075012927]"
"3714","29 Station Accueil Duguay Trouin","10","DEPLACEMENT","1006","Vélo","100601","Bicloo","Non Renseigné","NANTES","7 Allée Duguay Trouin","01 30 79 33 44","www.bicloo.nantesmetropole.fr","44000","[ 47.2134615787904 , -1.55528850840637]"
"3715","30 Station Abonnement Commerce","10","DEPLACEMENT","1006","Vélo","100601","Bicloo","Non Renseigné","NANTES","Allée Brancas","01 30 79 33 44","www.bicloo.nantesmetropole.fr","44000","[ 47.2131450294256 , -1.55738072263822]"
"3716","31 Station Accueil Bourse","10","DEPLACEMENT","1006","Vélo","100601","Bicloo","Non Renseigné","NANTES","Allée de la Bourse","01 30 79 33 44","www.bicloo.nantesmetropole.fr","44000","[ 47.2120943808486 , -1.55910527758924]"
"3717","32 Station Accueil Place Foch","10","DEPLACEMENT","1006","Vélo","100601","Bicloo","Non Renseigné","NANTES","Place Maréchal Foch","01 30 79 33 44","www.bicloo.nantesmetropole.fr","44000","[ 47.219342309251 , -1.55027785651826]"
"3718","33 Station Accueil Racine","10","DEPLACEMENT","1006","Vélo","100601","Bicloo","Non Renseigné","NANTES","4 Rue Racine","01 30 79 33 44","www.bicloo.nantesmetropole.fr","44000","[ 47.2135460456384 , -1.56319280951069]"
"3719","34 Station Abonnement Médiathèque","10","DEPLACEMENT","1006","Vélo","100601","Bicloo","Non Renseigné","NANTES","24 Quai de la Fosse","01 30 79 33 44","www.bicloo.nantesmetropole.fr","44000","[ 47.2109126549257 , -1.5618418449525]"
"3720","35 Station Abonnement Jean V","10","DEPLACEMENT","1006","Vélo","100601","Bicloo","Non Renseigné","NANTES","Place Jean V","01 30 79 33 44","www.bicloo.nantesmetropole.fr","44000","[ 47.212157257031 , -1.56551666094591]"
"3721","36 Station Accueil Alger","10","DEPLACEMENT","1006","Vélo","100601","Bicloo","Non Renseigné","NANTES","3 Rue d'Alger","01 30 79 33 44","www.bicloo.nantesmetropole.fr","44100","[ 47.210705238574 , -1.5666743136651]"
"3722","37 Station Accueil Feydeau","10","DEPLACEMENT","1006","Vélo","100601","Bicloo","Non Renseigné","NANTES","Rue Gaston Veil","01 30 79 33 44","www.bicloo.nantesmetropole.fr","44000","[ 47.2114728989176 , -1.55688248342545]"
"3723","38 Station Abonnement Place Ricordeau","10","DEPLACEMENT","1006","Vélo","100601","Bicloo","Non Renseigné","NANTES","Place Alexis Ricordeau","01 30 79 33 44","www.bicloo.nantesmetropole.fr","44000","[ 47.2120904234566 , -1.55313666650746]"
"3724","39 Station Accueil Quai Moncousu","10","DEPLACEMENT","1006","Vélo","100601","Bicloo","Non Renseigné","NANTES","10 Quai Moncousu","01 30 79 33 44","www.bicloo.nantesmetropole.fr","44000","[ 47.2093654560619 , -1.555248414263]"
"3725","40 Station Accueil Madeleine","10","DEPLACEMENT","1006","Vélo","100601","Bicloo","Non Renseigné","NANTES","2 Quai Moncousu","01 30 79 33 44","www.bicloo.nantesmetropole.fr","44000","[ 47.208815874652 , -1.5504304749082]"
"3726","41 Station Accueil Chantiers Navals","10","DEPLACEMENT","1006","Vélo","100601","Bicloo","Non Renseigné","NANTES","88 Quai de la Fosse","01 30 79 33 44","www.bicloo.nantesmetropole.fr","44100","[ 47.2083082123361 , -1.56974810265731]"
"3727","42 Station Abonnement Gare Maritime","10","DEPLACEMENT","1006","Vélo","100601","Bicloo","Non Renseigné","NANTES","Quai Ernest Renaud","01 30 79 33 44","www.bicloo.nantesmetropole.fr","44100","[ 47.2066090811753 , -1.57262953237793]"
"3728","43 Station Abonnement Machines de l'Ile","10","DEPLACEMENT","1006","Vélo","100601","Bicloo","Non Renseigné","NANTES","2 Boulevard Léon Bureau","01 30 79 33 44","www.bicloo.nantesmetropole.fr","44200","[ 47.2069302605475 , -1.56482580615095]"
"3729","44 Station Accueil Palais de Justice","10","DEPLACEMENT","1006","Vélo","100601","Bicloo","Non Renseigné","NANTES","19 Quai François Mitterrand","01 30 79 33 44","www.bicloo.nantesmetropole.fr","44200","[ 47.2083631782056 , -1.56124245373142]"
"3730","45 Station Accueil Prairie au Duc","10","DEPLACEMENT","1006","Vélo","100601","Bicloo","Non Renseigné","NANTES","40 Boulevard de la Prairie au Duc","01 30 79 33 44","www.bicloo.nantesmetropole.fr","44200","[ 47.2047848192062 , -1.55888284017234]"
"3731","46 Station Accueil Place de la République","10","DEPLACEMENT","1006","Vélo","100601","Bicloo","Non Renseigné","NANTES","3 Place de la République","01 30 79 33 44","www.bicloo.nantesmetropole.fr","44200","[ 47.2053380104941 , -1.55520684363397]"
"3732","47 Station Abonnement Martyrs Nantais","10","DEPLACEMENT","1006","Vélo","100601","Bicloo","Non Renseigné","NANTES","21 Boulevard Gaston Doumergue","01 30 79 33 44","www.bicloo.nantesmetropole.fr","44200","[ 47.207035364629 , -1.54817985054706]"
"3733","48 Station Abonnement Verdun","10","DEPLACEMENT","1006","Vélo","100601","Bicloo","Non Renseigné","NANTES","15 Rue de Verdun","01 30 79 33 44","www.bicloo.nantesmetropole.fr","44000","[ 47.217516769716 , -1.55186817651381]"
"3734","49 Station Accueil Duchesse Anne","10","DEPLACEMENT","1006","Vélo","100601","Bicloo","Non Renseigné","NANTES","Rue Henri IV","01 30 79 33 44","www.bicloo.nantesmetropole.fr","44000","[ 47.2165287485861 , -1.54707722079028]"
"3735","50 Station Abonnement Château","10","DEPLACEMENT","1006","Vélo","100601","Bicloo","Non Renseigné","NANTES","2 Rue des Etats","01 30 79 33 44","www.bicloo.nantesmetropole.fr","44000","[ 47.2151359323236 , -1.55027600234498]"
"3737","52 Station Accueil Baco","10","DEPLACEMENT","1006","Vélo","100601","Bicloo","Non Renseigné","NANTES","8 Allée Baco","01 30 79 33 44","www.bicloo.nantesmetropole.fr","44000","[ 47.2143388426474 , -1.54876893751898]"
"3738","53 Station Accueil Olivettes","10","DEPLACEMENT","1006","Vélo","100601","Bicloo","Non Renseigné","NANTES","10 Rue des Olivettes","01 30 79 33 44","www.bicloo.nantesmetropole.fr","44000","[ 47.2117494265765 , -1.54995935107843]"
"3739","54 Station Abonnement Cité Internationale des Congrès","10","DEPLACEMENT","1006","Vélo","100601","Bicloo","Non Renseigné","NANTES","2 Rue de Jemmapes","01 30 79 33 44","www.bicloo.nantesmetropole.fr","44000","[ 47.2131685540285 , -1.54502748383111]"
"3740","55 Station Accueil Magellan","10","DEPLACEMENT","1006","Vélo","100601","Bicloo","Non Renseigné","NANTES","11 Rue de Belfort","01 30 79 33 44","www.bicloo.nantesmetropole.fr","44000","[ 47.2106839754833 , -1.54424826339243]"
"3741","56 Station Accueil Vincent Gâche","10","DEPLACEMENT","1006","Vélo","100601","Bicloo","Non Renseigné","NANTES","9 Rue François Albert","01 30 79 33 44","www.bicloo.nantesmetropole.fr","44200","[ 47.2068622585847 , -1.54181497476041]"
"3742","57 Station Abonnement Gaëtan Rondeau","10","DEPLACEMENT","1006","Vélo","100601","Bicloo","Non Renseigné","NANTES","20 Rue Gaëtan Rondeau","01 30 79 33 44","www.bicloo.nantesmetropole.fr","44200","[ 47.2054070144366 , -1.53760065399595]"
"3743","58 Station Accueil Palais des Sports","10","DEPLACEMENT","1006","Vélo","100601","Bicloo","Non Renseigné","NANTES","21 Rue René Viviani","01 30 79 33 44","www.bicloo.nantesmetropole.fr","44200","[ 47.2084771961567 , -1.53599916068622]"
"3744","59 Station Accueil Stade Saupin","10","DEPLACEMENT","1006","Vélo","100601","Bicloo","Non Renseigné","NANTES","35 Quai Malakoff","01 30 79 33 44","www.bicloo.nantesmetropole.fr","44000","[ 47.2139232786654 , -1.53974824054074]"
"3745","60 Station Abonnement Gare Sud","10","DEPLACEMENT","1006","Vélo","100601","Bicloo","Non Renseigné","NANTES","12 Rue de Lourmel","01 30 79 33 44","www.bicloo.nanresmetropole.fr","44000","[ 47.2159307421474 , -1.54286596091712]"
"3746","61 Station Accueil LU Lieu Unique","10","DEPLACEMENT","1006","Vélo","100601","Bicloo","Non Renseigné","NANTES","23 Quai Ferdinand Favre","01 30 79 33 44","www.bicloo.nantesmetropole.fr","44000","[ 47.2156027850142 , -1.54592421117785]"
"3747","62 Station Abonnement Gare Nord","10","DEPLACEMENT","1006","Vélo","100601","Bicloo","Non Renseigné","NANTES","1 Place Charles le Roux","01 30 79 33 44","www.bicloo.nantesmetropole.fr","44000","[ 47.2181414046142 , -1.54224096840209]"
"3748","63 Station Accueil Jardins des Plantes","10","DEPLACEMENT","1006","Vélo","100601","Bicloo","Non Renseigné","NANTES","6 Rue Stanislas Baudry","01 30 79 33 44","www.bicloo.nantesmetropole.fr","44000","[ 47.2198651514153 , -1.54475253537978]"
"3750","64 Station Abonnement et Bonus Saint Clément","10","DEPLACEMENT","1006","Vélo","100601","Bicloo","Non Renseigné","NANTES","37B Rue Maréchal Joffre","01 30 79 33 44","www.bicloo.nantesmetropole.fr","44000","[ 47.2217983948072 , -1.54717172480906]"
"3751","65 Station Accueil Cours Sully","10","DEPLACEMENT","1006","Vélo","100601","Bicloo","Non Renseigné","NANTES","7 Cours Sully","01 30 79 33 44","www.bicloo.nantesmetropole.fr","44000","[ 47.2225988184658 , -1.5516848391931]"
"3752","66 Station Accueil Chanzy","10","DEPLACEMENT","1006","Vélo","100601","Bicloo","Non Renseigné","NANTES","23 Avenue Chanzy","01 30 79 33 44","www.bicloo.nantesmetropole.fr","44000","[ 47.2254413947716 , -1.54801802179078]"
"3753","67 Station Accueil Place Waldeck Rousseau","10","DEPLACEMENT","1006","Vélo","100601","Bicloo","Non Renseigné","NANTES","Place Waldeck Rousseau","01 30 79 33 44","www.bicloo.nantesmetropole.fr","44000","[ 47.2277863381608 , -1.55216613912966]"
"3754","68 Station Accueil Livet","10","DEPLACEMENT","1006","Vélo","100601","Bicloo","Non Renseigné","NANTES","65 Rue Dufour","01 30 79 33 44","www.bicloo.nanresmetropole.fr","44000","[ 47.2240954955051 , -1.54521632095855]"
"3755","69 Station Accueil Manufacture","10","DEPLACEMENT","1006","Vélo","100601","Bicloo","Non Renseigné","NANTES","11 Boulevard de Stalingrad","01 30 79 33 44","www.bicloo.nantesmetropole.fr","44000","[ 47.2192276992993 , -1.53586535019784]"
"3757","71 Station Abonnement et Bonus Marché de Talensac nord","10","DEPLACEMENT","1006","Vélo","100601","Bicloo","Non Renseigné","NANTES","18 Rue de Talensac","01 30 79 33 44","www.bicloo.nantesmetropole.fr","44000","[ 47.2219103419541 , -1.55906934287743]"
"3759","73 Station Accueil Sarradin","10","DEPLACEMENT","1006","Vélo","100601","Bicloo","Non Renseigné","NANTES","4 Place Emile Sarradin","01 30 79 33 44","www.bicloo.nantesmetropole.fr","44000","[ 47.2208837667212 , -1.57050717785263]"
"3760","74 Station Accueil Canclaux","10","DEPLACEMENT","1006","Vélo","100601","Bicloo","Non Renseigné","NANTES","8 Place Canclaux","01 30 79 33 44","www.bicloo.nantesmetropole.fr","44100","[ 47.2143716842925 , -1.57500608192678]"
"3761","75 Station Accueil Lamoricière","10","DEPLACEMENT","1006","Vélo","100601","Bicloo","Non Renseigné","NANTES","14 Rue Lamoricière","01 30 79 33 44","www.bicloo.nantesmetropole.fr","44100","[ 47.212365614395 , -1.57139899840128]"
"3762","76 Station Accueil Place René Bouhier","10","DEPLACEMENT","1006","Vélo","100601","Bicloo","Non Renseigné","NANTES","8 Place René Bouhier","01 30 79 33 44","www.bicloo.nantesmetropole.fr","44100","[ 47.2094420409641 , -1.57058928666779]"
"3763","77 Station Accueil Ecole d'Architecture","10","DEPLACEMENT","1006","Vélo","100601","Bicloo","Non Renseigné","NANTES","Quai François Mitterrand","01 30 79 33 44","www.bicloo.nantesmetropole.fr","44200","[ 47.2076169020017 , -1.55755125966966]"
"3764","78 Station Accueil De Gaulle","10","DEPLACEMENT","1006","Vélo","100601","Bicloo","Non Renseigné","NANTES","Boulevard Général de Gaulle","01 30 79 33 44","www.bicloo.nantesmetropole.fr","44200","[ 47.2084603783954 , -1.54056873329161]"
"3765","79 Station Accueil Malakoff","10","DEPLACEMENT","1006","Vélo","100601","Bicloo","Non Renseigné","NANTES","14 Quai Malakoff","01 30 79 33 44","www.bicloo.nantesmetropole.fr","44000","[ 47.2132038951461 , -1.53652014877728]"
"3776","P+R tramway Marcel Paul","10","DEPLACEMENT","1002","Parc Relais","100202","Enclos","Non Renseigné","ST-HERBLAIN","Boulevard Marcel Paul","02 40 44 44 44","www.tan.fr","44800","[ 47.2459045698135 , -1.61800834963946]"
"3777","P+R tramway Grande Ouche","10","DEPLACEMENT","1002","Parc Relais","100203","Libre","Non Renseigné","BOUGUENAIS","Rue de la Grande Ouche","02 40 44 44 44","www.tan.fr","44340","[ 47.1819948350479 , -1.57947203525665]"
"3778","P+R busway Bourdonnières 2","10","DEPLACEMENT","1002","Parc Relais","100203","Libre","Non Renseigné","NANTES","Rue des Bourdonnières","02 40 44 44 44","www.tan.fr","44200","[ 47.186401501745 , -1.52298286719509]"
"3830","87 Station Accueil Anatole-France","10","DEPLACEMENT","1006","Vélo","100601","Bicloo","Non Renseigné","NANTES","34 Rue Alexandre Dumas","01 30 79 33 44","www.bicloo.nantesmetropole.fr","44000","[ 47.2236164437223 , -1.57139236049388]"
"3831","86 Station Accueil Hauts Pavés","10","DEPLACEMENT","1006","Vélo","100601","Bicloo","Non Renseigné","NANTES","91 Rue des Hauts Pavés","01 30 79 33 44","www.bicloo.nantesmetropole.fr","44000","[ 47.2254822618338 , -1.56752047182291]"
"3833","88 Station Accueil Mellinet","10","DEPLACEMENT","1006","Vélo","100601","Bicloo","Non Renseigné","NANTES","1 Boulevard Allard","01 30 79 33 44","www.bicloo.nantesmetropole.fr","44100","[ 47.211489622114 , -1.57712676541886]"
"3834","89 Station Accueil Saint-Aignan","10","DEPLACEMENT","1006","Vélo","100601","Bicloo","Non Renseigné","NANTES","65 Boulevard Saint Aignan","01 30 79 33 44","www.bicloo.nantesmetropole.fr","44100","[ 47.2074440639466 , -1.57871509661417]"
"3835","80 Station Accueil Victor Hugo","10","DEPLACEMENT","1006","Vélo","100601","Bicloo","Non Renseigné","NANTES","28 Boulevard Gustave Roch","01 30 79 33 44","www.bicloo.nantesmetropole.fr","44200","[ 47.2040143599928 , -1.55156732506795]"
"3836","81 Station Abonnement Mangin","10","DEPLACEMENT","1006","Vélo","100601","Bicloo","Non Renseigné","NANTES","8 Place Victor Mangin","01 30 79 33 44","www.bicloo.nantesmetropole.fr","44200","[ 47.2009917746406 , -1.54549702666218]"
"3837","82 Station Accueil Sébilleau","10","DEPLACEMENT","1006","Vélo","100601","Bicloo","Non Renseigné","NANTES","11 Rue Gaëtan Rondeau","01 30 79 33 44","www.bicloo.nantesmetropole.fr","44200","[ 47.2067685846983 , -1.53313636292619]"
"3838","83 Station Abonnement Millerand","10","DEPLACEMENT","1006","Vélo","100601","Bicloo","Non Renseigné","NANTES","9 Boulevard Alexandre Millerand","01 30 79 33 44","www.bicloo.nantesmetropole.fr","44200","[ 47.208217819463 , -1.53016141349475]"
"3839","84 Station Accueil Région","10","DEPLACEMENT","1006","Vélo","100601","Bicloo","Non Renseigné","NANTES","Place Gaston Defferre","01 30 79 33 44","www.bicloo.nantesmetropole.fr","44200","[ 47.2107532371851 , -1.52595127548116]"
"3950","Parking Courte Durée Gare Nord","10","DEPLACEMENT","1005","Parc en Enclos","","","Non Renseigné","NANTES","Cours John Kennedy","08 25 88 88 26","www.resaplace.com","44000","[ 47.2172647322169 , -1.54347875084443]"
"3951","Parking Les Machines","10","DEPLACEMENT","1001","Parking Ouvrage","100102","Elévation","Non Renseigné","NANTES","Rue Arthur III","08 25 88 88 26","www.resaplace.com","44200","[ 47.2059006220645 , -1.56272779236372]"
"3952","85 Station Accueil et Bonus Bel Air","10","DEPLACEMENT","1006","Vélo","100601","Bicloo","Non Renseigné","NANTES","102 Rue Paul Bellamy","01 30 79 33 44","www.bicloo.nantesmetropole.fr","44000","[ 47.2265315955713 , -1.56015561148945]"
"3973","10 Station Accueil Picasso","10","DEPLACEMENT","1006","Vélo","100601","Bicloo","Non Renseigné","NANTES","Mail Pablo Picasso","01 30 79 33 44","www.bicloo.nantesmetropole.fr","44000","[ 47.2163435868477 , -1.53422912101255]"
"3974","51 Station Abonnement Tabarly","10","DEPLACEMENT","1006","Vélo","100601","Bicloo","Non Renseigné","NANTES","1B Boulevard de Berlin","01 30 79 33 44","www.bicloo.nantesmetropole.fr","44000","[ 47.2143914699763 , -1.53007250061588]"
"3989","Parking Gare Sud 4","10","DEPLACEMENT","1001","Parking Ouvrage","100101","Souterrain","Non Renseigné","NANTES","24 Mail Pablo Picasso","08 25 88 88 26","www.resaplace.com","44000","[ 47.2151033663183 , -1.53793389528195]"
"3993","92 Station Abonnement Rond Point de Rennes","10","DEPLACEMENT","1006","Vélo","100601","Bicloo","Non Renseigné","NANTES","1 Boulevard Lelasseur","01 30 79 33 44","www.bicloo.nantesmetropole.fr","44000","[ 47.2330917037559 , -1.56601698077602]"
"3994","91 Station Abonnement Rond Point de Vannes","10","DEPLACEMENT","1006","Vélo","100601","Bicloo","Non Renseigné","NANTES","65 Boulevard Lelasseur","01 30 79 33 44","www.bicloo.nantesmetropole.fr","44000","[ 47.2296375405847 , -1.57205389018402]"
"3995","90 Station Abonnement Procé","10","DEPLACEMENT","1006","Vélo","100601","Bicloo","Non Renseigné","NANTES","Boulevard Gaston Serpette","01 30 79 33 44","www.bicloo.nantesmetropole.fr","44000","[ 47.2243215861999 , -1.57658356660229]"
"3996","102 Station Abonnement Gare de Pont Rousseau","10","DEPLACEMENT","1006","Vélo","100601","Bicloo","Non Renseigné","REZE","Rue de la Gare","01 30 79 33 44","www.bicloo.nantesmetropole.fr","44400","[ 47.1931492766954 , -1.54900545446362]"
"3997","101 Station Abonnement Pirmil","10","DEPLACEMENT","1006","Vélo","100601","Bicloo","Non Renseigné","NANTES","16 Rue Esnoult des Châtelets","01 30 79 33 44","www.bicloo.nantesmetropole.fr","44200","[ 47.1966294882289 , -1.54145063364339]"
"3998","99 Station Accueil Saint-Jacques","10","DEPLACEMENT","1006","Vélo","100601","Bicloo","Non Renseigné","NANTES","85 Rue Saint Jacques","01 30 79 33 44","www.bicloo.nantesmetropole.fr","44200","[ 47.1958591605985 , -1.53658962887906]"
"3999","100 Station Abonnement Gréneraie","10","DEPLACEMENT","1006","Vélo","100601","Bicloo","Non Renseigné","NANTES","Côte Saint Sébastien","01 30 79 33 44","www.bicloo.nantesmetropole.fr","44200","[ 47.1999707101929 , -1.5346071537874]"
"4000","96 Station Abonnement Tortière","10","DEPLACEMENT","1006","Vélo","100601","Bicloo","Non Renseigné","NANTES","2 Boulevard Eugène Orieux","01 30 79 33 44","www.bicloo.nantesmetropole.fr","44000","[ 47.2353448001876 , -1.54947343741177]"
"4001","95 Station Abonnement Michelet","10","DEPLACEMENT","1006","Vélo","100601","Bicloo","Non Renseigné","NANTES","38 Boulevard Michelet","01 30 79 33 44","www.bicloo.nantesmetropole.fr","44300","[ 47.2350837066755 , -1.55638870204855]"
"4002","94 Station Abonnement Petit Port","10","DEPLACEMENT","1006","Vélo","100601","Bicloo","Non Renseigné","NANTES","Place du Huit Mai 1945","01 30 79 33 44","www.bicloo.nantesmetropole.fr","44300","[ 47.2432626440766 , -1.55638098635507]"
"4003","93 Station Abonnement Facultés","10","DEPLACEMENT","1006","Vélo","100601","Bicloo","Non Renseigné","NANTES","Boulevard Guy Mollet","01 30 79 33 44","www.bicloo.nantesmetropole.fr","44300","[ 47.2463232883454 , -1.5553383498054]"
"4004","97 Station Accueil Saint-Donatien","10","DEPLACEMENT","1006","Vélo","100601","Bicloo","Non Renseigné","NANTES","69 Rue Général Buat","01 30 79 33 44","www.bicloo.nantesmetropole.fr","44000","[ 47.2291287626691 , -1.5404024174378]"
"4005","98 Station Abonnement Huit Mai","10","DEPLACEMENT","1006","Vélo","100601","Bicloo","Non Renseigné","REZE","81 Avenue de la Libération","01 30 79 33 44","www.bicloo.nantesmetropole.fr","44400","[ 47.1891485324905 , -1.55093306486444]"
"4010","Aire de covoiturage Piano'cktail","10","DEPLACEMENT","1003","Voiture partagée","100301","Aire de covoiturage","Non Renseigné","BOUGUENAIS","Rue Ginsheim Gustavsburg","08 11 13 01 44","www.covoiturage-nantesmetropole.fr","44340","[ 47.1743921106395 , -1.60539271713277]"
"4011","Aire de covoiturage Le Paradis","10","DEPLACEMENT","1003","Voiture partagée","100301","Aire de covoiturage","Non Renseigné","COUERON","RD 91","08 11 13 01 44","www.covoiturage-nantesmetropole.fr","44220","[ 47.2058433058368 , -1.751615681513]"
"4012","Aire de covoiturage Le Vélodrôme","10","DEPLACEMENT","1003","Voiture partagée","100301","Aire de covoiturage","Non Renseigné","COUERON","Boulevard Francois Blancho","08 11 13 01 44","www.covoiturage-nantesmetropole.fr","44220","[ 47.2114911474736 , -1.73553587146421]"
"4013","Aire de covoiturage Les Ormeaux","10","DEPLACEMENT","1003","Voiture partagée","100301","Aire de covoiturage","Non Renseigné","BOUAYE","Esplanade de l'Edit de Nantes","08 11 13 01 44","www.covoiturage-nantesmetropole.fr","44830","[ 47.1558857839796 , -1.68247122952125]"
"4014","Aire de covoiturage Georges Brassens","10","DEPLACEMENT","1003","Voiture partagée","100301","Aire de covoiturage","Non Renseigné","LA-MONTAGNE","Rue de la Gaudinière","08 11 13 01 44","www.covoiturage-nantesmetropole.fr","44620","[ 47.1833082568459 , -1.6759732987008]"
"4015","Aire de covoiturage La Herdrie","10","DEPLACEMENT","1003","Voiture partagée","100301","Aire de covoiturage","Non Renseigné","BASSE-GOULAINE","Route du Loroux Bottereau","08 11 13 01 44","www.covoiturage-nantesmetropole.fr","44115","[ 47.1981364148521 , -1.4545741556611]"
"4016","Aire de covoiturage Pas Enchantés","10","DEPLACEMENT","1003","Voiture partagée","100301","Aire de covoiturage","Non Renseigné","ST-SEBASTIEN","Boulevard des Pas Enchantés","08 11 13 01 44","www.covoiturage-nantesmetropole.fr","44230","[ 47.2103889373405 , -1.5039410584835]"
"4017","Aire de covoiturage Les 3 Brasseurs","10","DEPLACEMENT","1003","Voiture partagée","100301","Aire de covoiturage","Non Renseigné","ST-SEBASTIEN","Rue Marie Curie","08 11 13 01 44","www.covoiturage-nantesmetropole.fr","44230","[ 47.1909311959939 , -1.48944982933608]"
"4018","Aire de covoiturage La Charmelière","10","DEPLACEMENT","1003","Voiture partagée","100301","Aire de covoiturage","Non Renseigné","CARQUEFOU","Route de Thouaré","08 11 13 01 44","www.covoiturage-nantesmetropole.fr","44470","[ 47.2948276010662 , -1.47381722266676]"
"4019","Aire de covoiturage La Croix de Mauves","10","DEPLACEMENT","1003","Voiture partagée","100301","Aire de covoiturage","Non Renseigné","MAUVES-SUR-LOIRE","Voie Non Dénommée 0941988","08 11 13 01 44","www.covoiturage-nantesmetropole.fr","44470","[ 47.3002260614374 , -1.39840430261237]"
"4020","Station Bretagne","10","DEPLACEMENT","1003","Voiture partagée","100302","Marguerite","Non Renseigné","NANTES","2 Place de Bretagne","02 40 58 44 14","www.imarguerite.com","44000","[ 47.2174899073883 , -1.55963354318143]"
"4021","Station 50 Otages","10","DEPLACEMENT","1003","Voiture partagée","100302","Marguerite","Non Renseigné","NANTES","1 Rue Le Nôtre","02 40 58 44 14","www.imarguerite.com","44000","[ 47.2194053438521 , -1.55722786430589]"
"4022","Station Hôtel de Ville","10","DEPLACEMENT","1003","Voiture partagée","100302","Marguerite","Non Renseigné","NANTES","3 Place de l'Hôtel de Ville","02 40 58 44 14","www.imarguerite.com","44000","[ 47.2176490515034 , -1.55407383358279]"
"4023","Station Aristide Briand","10","DEPLACEMENT","1003","Voiture partagée","100302","Marguerite","Non Renseigné","NANTES","1 Place Aristide Briand","02 40 58 44 14","www.imarguerite.com","44000","[ 47.2172612842459 , -1.56254319041665]"
"4024","Station Commerce","10","DEPLACEMENT","1003","Voiture partagée","100302","Marguerite","Non Renseigné","NANTES","Place de la Petite Hollande","02 40 58 44 14","www.imarguerite.com","44000","[ 47.2118924383634 , -1.55716507497035]"
"4026","Station Baco","10","DEPLACEMENT","1003","Voiture partagée","100302","Marguerite","Non Renseigné","NANTES","3 Chaussée de la Madeleine","02 40 58 44 14","www.imarguerite.com","44000","[ 47.2121320145481 , -1.55242193688866]"
"4027","Station CIO","10","DEPLACEMENT","1003","Voiture partagée","100302","Marguerite","Non Renseigné","NANTES","2 Rue de Mayence","02 40 58 44 14","www.imarguerite.com","44000","[ 47.2125030057837 , -1.54620521288415]"
"4028","Station Cité des Congrès","10","DEPLACEMENT","1003","Voiture partagée","100302","Marguerite","Non Renseigné","NANTES","Rue de Valmy","02 40 58 44 14","www.imarguerite.com","44000","[ 47.2132409347 , -1.54452831608963]"
"4029","Station Gare SNCF Sud","10","DEPLACEMENT","1003","Voiture partagée","100302","Marguerite","Non Renseigné","NANTES","Quai Malakoff","02 40 58 44 14","www.imarguerite.com","44000","[ 47.2149069334244 , -1.54185994912442]"
"4030","Station Manufacture","10","DEPLACEMENT","1003","Voiture partagée","100302","Marguerite","Non Renseigné","NANTES","11B Boulevard de Stalingrad","02 40 58 44 14","www.imarguerite.com","44000","[ 47.2190322362424 , -1.53624925513081]"
"4031","Station Rond Point de Paris","10","DEPLACEMENT","1003","Voiture partagée","100302","Marguerite","Non Renseigné","NANTES","10 Boulevard Jules Verne","02 40 58 44 14","www.imarguerite.com","44300","[ 47.2344561541767 , -1.53529009313813]"
"4032","Station Ecole d'Architecture","10","DEPLACEMENT","1003","Voiture partagée","100302","Marguerite","Non Renseigné","NANTES","2a Place François II","02 40 58 44 14","www.imarguerite.com","44200","[ 47.2065013480274 , -1.55668647130342]"
"4033","Station Mangin","10","DEPLACEMENT","1003","Voiture partagée","100302","Marguerite","Non Renseigné","NANTES","6 Place Victor Mangin","02 40 58 44 14","www.imarguerite.com","44200","[ 47.2012759690694 , -1.54518063963327]"
"4034","Station Chantiers Navals","10","DEPLACEMENT","1003","Voiture partagée","100302","Marguerite","Non Renseigné","NANTES","5 Place Commandant Jean l'Herminier","02 40 58 44 14","www.imarguerite.com","44100","[ 47.2091315762997 , -1.5683301930206]"
"4035","Station Mairie de Chantenay","10","DEPLACEMENT","1003","Voiture partagée","100302","Marguerite","Non Renseigné","NANTES","148 Boulevard de la Liberté","02 40 58 44 14","www.imarguerite.com","44100","[ 47.2065168340528 , -1.58787125667645]"
"4036","Station Zola","10","DEPLACEMENT","1003","Voiture partagée","100302","Marguerite","Non Renseigné","NANTES","18 Rue des Renardières","02 40 58 44 14","www.imarguerite.com","44100","[ 47.214077429887 , -1.58739165581353]"
"4037","Station Sainte Thérèse","10","DEPLACEMENT","1003","Voiture partagée","100302","Marguerite","Non Renseigné","NANTES","52 Boulevard Boulay Paty","02 40 58 44 14","www.imarguerite.com","44100","[ 47.2323454380931 , -1.57721870648655]"
"4038","Station Duchesse Anne","10","DEPLACEMENT","1003","Voiture partagée","100302","Marguerite","Non Renseigné","NANTES","Rue Henri IV","02 40 58 44 14","www.imarguerite.com","44000","[ 47.2165024497787 , -1.54717075568781]"
"4048","Gare Routière Baco Lila","10","DEPLACEMENT","1004","Transport en commun","100404","Route","Non Renseigné","NANTES","13 Allée de la Maison Rouge","08 25 08 71 56","www.loire-atlantique.fr/lila","44000","[ 47.2126755417774 , -1.55276994885937]"
"4049","Gare Routière Pirmil Lila","10","DEPLACEMENT","1004","Transport en commun","100404","Route","Non Renseigné","NANTES","Rue Esnoult des Châtelets","08 25 08 71 56","www.loire-atlantique.fr/lila","44200","[ 47.1963923435608 , -1.54267335074876]"
"4050","Gare Routière Beauséjour Lila","10","DEPLACEMENT","1004","Transport en commun","100404","Route","Non Renseigné","NANTES","Route de Vannes","08 25 08 71 56","www.loire-atlantique.fr/lila","44100","[ 47.2380795016075 , -1.58686060715571]"
"4051","Gare Routière Cardo Lila","10","DEPLACEMENT","1004","Transport en commun","100404","Route","Non Renseigné","ORVAULT","Esplanade du Cardo","08 25 08 71 56","www.loire-atlantique.fr","44700","[ 47.2617996203739 , -1.58415510201614]"
"4052","Gare Routière Haluchère Lila","10","DEPLACEMENT","1004","Transport en commun","100404","Route","Non Renseigné","NANTES","Boulevard Jules Verne","08 25 08 71 56","www.loire-atlantique.fr/lila","44300","[ 47.2480211629729 , -1.52143188594155]"
"4053","103 Station Mobile","10","DEPLACEMENT","1006","Vélo","100601","Bicloo","Non Renseigné","NANTES","Quai Fernand Crouan","01 30 79 33 44","www.bicloo.nantesmetropole.fr","44200","[ 47.2061177649788 , -1.56886475459008]"
"4066","Station Canclaux","10","DEPLACEMENT","1003","Voiture partagée","100302","Marguerite","Non Renseigné","NANTES","10 Place Canclaux","02 40 58 44 14","www.imarguerite.com","44100","[ 47.2141712241294 , -1.5748272514646]"
"4072","Parking Chantiers Navals","10","DEPLACEMENT","1005","Parc en Enclos","","","Non Renseigné","NANTES","Quai de la Fosse","02 51 84 94 51","www.parkings-nantes.fr","44100","[ 47.2082893195233 , -1.56891560955727]"
"4073","Parking Gloriette 2","10","DEPLACEMENT","1005","Parc en Enclos","","","Non Renseigné","NANTES","Rue Albert de Mun","02 51 84 94 51","www.parkings-nantes.fr","44000","[ 47.2102736871054 , -1.56028436884679]"
"4076","P+R tramway Santos Dumont","10","DEPLACEMENT","1002","Parc Relais","100203","Libre","Non Renseigné","NANTES","Rue des Renards","02 40 44 44 44","www.tan.fr","44300","[ 47.2593236730243 , -1.56822710791259]"
"4077","72 Station Accueil Félibien Gué-Moreau","10","DEPLACEMENT","1006","Vélo","100601","Bicloo","Non Renseigné","NANTES","138 Rue Paul Bellamy","01 30 79 33 44","www.bicloo.nantesmetropole.fr","44000","[ 47.2286141235376 , -1.56192014921017]"
"4083","Aire de covoiturage La Métaierie Rouge","10","DEPLACEMENT","1003","Voiture partagée","100301","Aire de covoiturage","Non Renseigné","LA-CHAPELLE-SUR-ERDRE","VC 5","08 11 13 01 44","www.covoiturage-nantesmetropole.fr","44240","[ 47.2744422259447 , -1.54638397050348]"
"4084","Aire de covoiturage Norauto Atlantis","10","DEPLACEMENT","1003","Voiture partagée","100301","Aire de covoiturage","Non Renseigné","ST-HERBLAIN","Rue Océane","08 11 13 01 44","www.covoiturage-nantesmetropole.fr","44800","[ 47.2257239248911 , -1.62624641113902]"
"4099","Aire de covoiturage Carrefour Beaujoire","10","DEPLACEMENT","1003","Voiture partagée","100301","Aire de covoiturage","Non Renseigné","NANTES","1 Avenue Flora Tristan","08 11 13 01 44","www.covoiturage-nantesmetropole.fr","44300","[ 47.2578779098455 , -1.50983215080644]"
"4100","P+R tramway Ranzay","10","DEPLACEMENT","1002","Parc Relais","100202","Enclos","Non Renseigné","NANTES","Route de Saint Joseph","02 40 44 44 44","www.tan.fr","44300","[ 47.2543632744444 , -1.53313665411229]"
"4101","P+R tram-train Haluchère 1","10","DEPLACEMENT","1002","Parc Relais","100202","Enclos","Non Renseigné","NANTES","Rue du Ranzai","02 40 44 44 44","www.tan.fr","44300","[ 47.2484503442291 , -1.52283117372235]"
"4142","Parking Baco-LU 1 côté gare","10","DEPLACEMENT","1005","Parc en Enclos","","","Non Renseigné","NANTES","Allée Baco","02 51 84 94 51","www.parkings-nantes.fr","44000","[ 47.2143324211276 , -1.54898882844897]"
"4146","Station Quai de Versailles","10","DEPLACEMENT","1003","Voiture partagée","100302","Marguerite","Non Renseigné","NANTES","38 Quai de Versailles","","","44000","[ 47.226783599264 , -1.55558569228364]"
"4309","P+R TER / chronobus Gare de Chantenay","10","DEPLACEMENT","1002","Parc Relais","100203","Libre","Non Renseigné","NANTES","Rue de la Gare de Chantenay","","","44100","[ 47.1975346063468 , -1.59463484972795]"
"4310","P+R tramway Neustrie 3","10","DEPLACEMENT","1002","Parc Relais","100203","Libre","Non Renseigné","BOUGUENAIS","Rue de la Neustrie","","","44340","[ 47.1773452531518 , -1.59164987334643]"
"134","Parking Médiathèque","10","DEPLACEMENT","1001","Parking Ouvrage","100103","Mixte","Non Renseigné","NANTES","Rue Neuve des Capucins","02 51 84 94 51","www.parkings-nantes.fr","44000","[ 47.2108708271003 , -1.5623381759623]"
"261","Gare de Nantes Chantenay","10","DEPLACEMENT","1004","Transport en commun","100403","Rail","Non Renseigné","NANTES","Rue de la Gare de Chantenay","08 10 32 43 24","www.ter-sncf.com","44100","[ 47.1972022454039 , -1.59435499316903]"
"280","Parking Gare Nord","10","DEPLACEMENT","1001","Parking Ouvrage","100102","Elévation","Non Renseigné","NANTES","Cours John Kennedy","08 25 88 88 26","www.resaplace.com","44000","[ 47.2166890401729 , -1.54498433411572]"
"281","Gare de Nantes -accès nord","10","DEPLACEMENT","1004","Transport en commun","100403","Rail","Non Renseigné","NANTES","27 Boulevard de Stalingrad","36 35","www.gares-connexions.com","44000","[ 47.2174911129885 , -1.54205106482655]"
"282","Gare Fluviale Bateaux Nantais","10","DEPLACEMENT","1004","Transport en commun","100402","Fluvial","Non Renseigné","NANTES","15 Place Waldeck Rousseau","02 40 14 51 14","www.bateaux-nantais.fr","44000","[ 47.2279684766427 , -1.5516367391695]"
"284","Parking Decré-Bouffay","10","DEPLACEMENT","1001","Parking Ouvrage","100103","Mixte","Non Renseigné","NANTES","18 Rue du Moulin","02 51 84 94 51","www.parkings-nantes.fr","44000","[ 47.2166626199643 , -1.55400463227177]"
"288","Parking Graslin","10","DEPLACEMENT","1001","Parking Ouvrage","100102","Elévation","Non Renseigné","NANTES","Rue Scribe","02 51 84 94 51","www.parkings-nantes.fr","44000","[ 47.2143102105068 , -1.56257181621741]"
"299","Parking Tour Bretagne","10","DEPLACEMENT","1001","Parking Ouvrage","100103","Mixte","Non Renseigné","NANTES","4 Place de Bretagne","02 51 84 94 51","www.parkings-nantes.fr","44000","[ 47.2178428948398 , -1.55825001902681]"
"663","Gare Routière Baco Eurolines","10","DEPLACEMENT","1004","Transport en commun","100404","Route","Non Renseigné","NANTES","Allée de la Maison Rouge","08 92 89 90 91","www.eurolines.fr","44000","[ 47.2127402501474 , -1.55276077185068]"
"677","Parking Commerce","10","DEPLACEMENT","1001","Parking Ouvrage","100101","Souterrain","Non Renseigné","NANTES","Place du Commerce","02 51 84 94 51","www.parkings-nantes.fr","44000","[ 47.2131202858024 , -1.55771321969051]"
"1042","Gare de Nantes -accès sud","10","DEPLACEMENT","1004","Transport en commun","100403","Rail","Non Renseigné","NANTES","2 Rue de Lourmel","36 35","www.gares-connexions.com","44000","[ 47.216448854427 , -1.54155846026517]"
"1043","Parking Aristide Briand","10","DEPLACEMENT","1001","Parking Ouvrage","100101","Souterrain","Non Renseigné","NANTES","Place Aristide Briand","08 10 26 30 00","www.vincipark.com","44000","[ 47.2170936048579 , -1.56293641808053]"
"1044","Parking Cité des Congrès","10","DEPLACEMENT","1001","Parking Ouvrage","100101","Souterrain","Non Renseigné","NANTES","Avenue Jean Claude Bonduelle","02 51 84 94 51","www.parkings-nantes.fr","44000","[ 47.2129016709023 , -1.54397127716684]"
"1045","Parking Gare Sud 1","10","DEPLACEMENT","1001","Parking Ouvrage","100102","Elévation","Non Renseigné","NANTES","Rue de Lourmel","08 25 88 88 26","www.resaplace.com","44000","[ 47.2161496359544 , -1.54103682846398]"
"1046","Parking Talensac","10","DEPLACEMENT","1001","Parking Ouvrage","100102","Elévation","Non Renseigné","NANTES","Rue Le Nôtre","02 51 84 94 51","www.parkings-nantes.fr","44000","[ 47.2202559810468 , -1.55835729990237]"
"1341","P+R tramway Recteur Schmitt 1","10","DEPLACEMENT","1002","Parc Relais","100201","Ouvrage","Non Renseigné","NANTES","Rue Recteur Schmitt","02 40 44 44 44","www.tan.fr","44300","[ 47.2517352538688 , -1.55290310437924]"
"1581","Capitainerie du Port Atlantique Nantes Saint Nazaire","10","DEPLACEMENT","1004","Transport en commun","100402","Fluvial","Non Renseigné","NANTES","Quai Ernest Renaud","02 40 44 20 53","www.nantes.port.fr","44100","[ 47.2054007823477 , -1.57398139134178]"
"1583","Port Autonome de Nantes Saint Nazaire","10","DEPLACEMENT","1004","Transport en commun","100402","Fluvial","Non Renseigné","NANTES","18 Quai Ernest Renaud","02 40 44 20 20","www.nantes.port.fr","44100","[ 47.2055111148953 , -1.57471135472788]"
"1624","Port de l'Erdre","10","DEPLACEMENT","1004","Transport en commun","100402","Fluvial","Non Renseigné","NANTES","Quai de Versailles","02 40 37 04 62","www.nge-nantes.fr","44000","[ 47.2252035773148 , -1.55372459801084]"
"1658","Service Maritime et Navigation Ecluse Saint Félix","10","DEPLACEMENT","1004","Transport en commun","100402","Fluvial","Non Renseigné","NANTES","Quai Ferdinand Favre","02 40 71 02 19","www.equipement.gouv.fr","44000","[ 47.2125286072856 , -1.54089899952201]"
"1805","Gare de Basse-Indre / Saint-Herblain","10","DEPLACEMENT","1004","Transport en commun","100403","Rail","Non Renseigné","ST-HERBLAIN","Rue de la Gare","08 10 32 43 24","www.ter-sncf.com","44800","[ 47.2040832390443 , -1.66031284128023]"
"2109","Aéroport Nantes Atlantique","10","DEPLACEMENT","1004","Transport en commun","100401","Aérien","Public","BOUGUENAIS","Rue Clément Ader","02 40 84 80 00","www.nantes.aeroport.fr","44340","[ 47.1575191481928 , -1.60178206983725]"
"2374","Bacs de Loire entre Basse-Indre et Indret","10","DEPLACEMENT","1004","Transport en commun","100402","Fluvial","Non Renseigné","INDRE","Quai Besnard","02 40 86 01 29","www.loire-atlantique.fr","44610","[ 47.1974591309304 , -1.67361043471387]"
"2375","Gare de Bouaye","10","DEPLACEMENT","1004","Transport en commun","100403","Rail","Non Renseigné","BOUAYE","Allée Louis Armand","08 10 32 43 24","www.ter-sncf.com","44830","[ 47.1380452446435 , -1.68110358820185]"
"2452","Gare de Couëron","10","DEPLACEMENT","1004","Transport en commun","100403","Rail","Non Renseigné","COUERON","Rue de la Gare","08 10 32 43 24","www.ter-sncf.com","44220","[ 47.2219441875147 , -1.72359939991892]"
"2497","Bacs de Loire entre Couëron et Le Pellerin","10","DEPLACEMENT","1004","Transport en commun","100402","Fluvial","Non Renseigné","COUERON","RD 91","02 40 86 01 29","www.loire-atlantique.fr","44220","[ 47.2059462443778 , -1.75212411426107]"
"2517","Gare de Rezé Pont-Rousseau","10","DEPLACEMENT","1004","Transport en commun","100403","Rail","Non Renseigné","REZE","Rue de la Gare","08 10 32 43 24","www.ter-sncf.com","44400","[ 47.193331595479 , -1.54939210542755]"
"2518","Gare de Thouaré-sur-Loire","10","DEPLACEMENT","1004","Transport en commun","100403","Rail","Non Renseigné","THOUARE-SUR-LOIRE","Place de la République","08 10 32 43 24","www.ter-sncf.com","44470","[ 47.2651201184653 , -1.44096386071447]"
"2519","Gare de Mauves-sur-Loire","10","DEPLACEMENT","1004","Transport en commun","100403","Rail","Non Renseigné","MAUVES-SUR-LOIRE","2 Place de la Gare","08 10 32 43 24","www.ter-sncf.com","44470","[ 47.2930081697889 , -1.38930347898703]"
"2520","Gare de Vertou","10","DEPLACEMENT","1004","Transport en commun","100403","Rail","Non Renseigné","VERTOU","Allée du 30 Décembre 1866","08 10 32 43 24","www.ter-sncf.com","44120","[ 47.1861434794643 , -1.47803194855925]"
"2532","Port de Trentemoult","10","DEPLACEMENT","1004","Transport en commun","100402","Fluvial","Non Renseigné","REZE","Allée Claude Choëmet","02 51 84 94 51","www.nge-nantes.fr","44400","[ 47.1955772998858 , -1.57837788591499]"
"2533","Port de Couëron","10","DEPLACEMENT","1004","Transport en commun","100402","Fluvial","Non Renseigné","COUERON","Quai Jean-Pierre Fougerat","02 51 84 94 51","www.nge-nantes.fr","44220","[ 47.2091256884984 , -1.72995922379383]"
"3188","P+R tramway Frachon","10","DEPLACEMENT","1002","Parc Relais","100203","Libre","Non Renseigné","ST-HERBLAIN","Boulevard Salvador Allende","02 40 44 44 44","www.tan.fr","44800","[ 47.2186961365515 , -1.62163336178234]"
"3189","P+R tramway Le Cardo","10","DEPLACEMENT","1002","Parc Relais","100201","Ouvrage","Non Renseigné","ORVAULT","Esplanade du Cardo","02 40 44 44 44","www.tan.fr","44700","[ 47.2625020936155 , -1.58451198079141]"
"3190","P+R tramway François Mitterrand","10","DEPLACEMENT","1002","Parc Relais","100201","Ouvrage","Non Renseigné","ST-HERBLAIN","Rue Virginia Woolf","02 40 44 44 44","www.tan.fr","44800","[ 47.22170620087 , -1.63948414305523]"
"3191","P+R tramway Recteur Schmitt 2","10","DEPLACEMENT","1002","Parc Relais","100203","Libre","Non Renseigné","NANTES","Rue Recteur Schmitt","02 40 44 44 44","www.tan.fr","44300","[ 47.2520277017386 , -1.55247038464754]"
"3192","P+R tramway La Beaujoire","10","DEPLACEMENT","1002","Parc Relais","100202","Enclos","Non Renseigné","NANTES","Rue Colette","02 40 44 44 44","www.tan.fr","44300","[ 47.2594951760586 , -1.52668095430807]"
"3194","P+R tramway 8 Mai","10","DEPLACEMENT","1002","Parc Relais","100201","Ouvrage","Non Renseigné","REZE","Avenue André Malraux","02 40 44 44 44","www.tan.fr","44400","[ 47.1900337520995 , -1.55143945054574]"
"3195","P+R tramway Trocardière","10","DEPLACEMENT","1002","Parc Relais","100203","Libre","Non Renseigné","REZE","Avenue Léon Blum","02 40 44 44 44","www.tan.fr","44400","[ 47.1832927458839 , -1.57109558940531]"
"3196","P+R tramway René Cassin","10","DEPLACEMENT","1002","Parc Relais","100203","Libre","Non Renseigné","NANTES","Route de la Chapelle Sur Erdre","02 40 44 44 44","www.tan.fr","44300","[ 47.2639509260101 , -1.57499790750312]"
"3197","P+R tramway Pirmil","10","DEPLACEMENT","1002","Parc Relais","100203","Libre","Non Renseigné","NANTES","Rue Esnoult des Châtelets","02 40 44 44 44","www.tan.fr","44200","[ 47.1972132932035 , -1.54144839889655]"
"3198","P+R tramway Goudy","10","DEPLACEMENT","1002","Parc Relais","100202","Enclos","Non Renseigné","NANTES","Rue Gabriel Goudy","02 40 44 44 44","www.tan.fr","44200","[ 47.1960989467374 , -1.5410477469437]"
"3200","P+R TER Frêne Rond","10","DEPLACEMENT","1002","Parc Relais","100203","Libre","Non Renseigné","ST-SEBASTIEN","Rue de l'Ouche Quinet","02 40 44 44 44","www.tan.fr","44230","[ 47.1906228420922 , -1.49618578979617]"
"3201","P+R TER Gare de Vertou Nord","10","DEPLACEMENT","1002","Parc Relais","100203","Libre","Non Renseigné","VERTOU","Allée du 30 Décembre 1866","02 40 44 44 44","www.tan.fr","44120","[ 47.1864023763705 , -1.47916185458301]"
"3202","P+R TER Gare de Vertou Sud","10","DEPLACEMENT","1002","Parc Relais","100203","Libre","Non Renseigné","VERTOU","Rue du Bois Rigaud","02 40 44 44 44","www.tan.fr","44120","[ 47.1856830197378 , -1.4785719721858]"
"3227","P+R tramway Plaisance","10","DEPLACEMENT","1002","Parc Relais","100203","Libre","Non Renseigné","ST-HERBLAIN","Route de Vannes","02 40 44 44 44","www.tan.fr","44800","[ 47.2405326620207 , -1.59344052396589]"
"3353","Gare de St-Sébastien Frêne Rond","10","DEPLACEMENT","1004","Transport en commun","100403","Rail","Non Renseigné","ST-SEBASTIEN","Rue de l'Ouche Quinet","08 10 32 43 24","www.ter-sncf.com","44230","[ 47.1906163481095 , -1.4958313646506]"
"3549","Parking Gloriette 1","10","DEPLACEMENT","1005","Parc en Enclos","","","Non Renseigné","NANTES","Allée de l'Ile Gloriette","02 51 84 94 51","www.parkings-nantes.fr","44000","[ 47.2111796553233 , -1.55843872950464]"
"3550","Parking Hôtel Dieu","10","DEPLACEMENT","1005","Parc en Enclos","","","Non Renseigné","NANTES","Chaussée de la Madeleine","02 51 84 94 51","www.parkings-nantes.fr","44000","[ 47.2110570860299 , -1.55198311230427]"
"3551","Parking Baco-LU 2 côté CHU","10","DEPLACEMENT","1005","Parc en Enclos","","","Non Renseigné","NANTES","Allée Baco","02 51 84 94 51","www.parkings-nantes.fr","44000","[ 47.2131509800273 , -1.55160425745185]"
"3552","P+R TER Gare des Pas Enchantés","10","DEPLACEMENT","1002","Parc Relais","100203","Libre","Non Renseigné","ST-SEBASTIEN","Rue de la Loire","02 40 44 44 44","www.tan.fr","44230","[ 47.2082290545652 , -1.51299644307533]"
"3553","Gare de St-Sébastien Pas Enchantés","10","DEPLACEMENT","1004","Transport en commun","100403","Rail","Non Renseigné","ST-SEBASTIEN","Rue du Docteur Paul Michaux","08 10 32 43 24","www.ter-sncf.com","44230","[ 47.2070087740385 , -1.51111306351385]"
"3554","Parking Château","10","DEPLACEMENT","1005","Parc en Enclos","","","Non Renseigné","NANTES","Rue Henri IV","02 51 84 94 51","www.parkings-nantes.fr","44000","[ 47.2169899609793 , -1.54785044968527]"
"3555","Parking Gare Sud 3","10","DEPLACEMENT","1001","Parking Ouvrage","100103","Mixte","Non Renseigné","NANTES","32 Rue du Pré Gauchet","","","44000","[ 47.2149153406257 , -1.539256311287]"
"4311","P+R chronobus Chantrerie - Grandes Ecoles","10","DEPLACEMENT","1002","Parc Relais","100203","Libre","Non Renseigné","NANTES","Route de Gachet","","","44300","[ 47.2810941460666 , -1.5184745954479]"
"4312","P+R chronobus Planchonnais","10","DEPLACEMENT","1002","Parc Relais","100203","Libre","Non Renseigné","SAINTE-LUCE-SUR-LOIRE","Rue de la Planchonnais","","","44980","[ 47.2531977445948 , -1.47497405146538]"
"4313","P+R TER/chronobus La Noë","10","DEPLACEMENT","1002","Parc Relais","100203","Libre","Non Renseigné","THOUARE-SUR-LOIRE","Rue des Ponts","","","44470","[ 47.2661206435125 , -1.43902005915263]"
"4314","P+R chronobus Pré Poulain","10","DEPLACEMENT","1002","Parc Relais","100203","Libre","Non Renseigné","THOUARE-SUR-LOIRE","Rue de Beaulieu","","","44470","[ 47.2732941971647 , -1.44604469439019]"
"4315","Aire de covoiturage de la Mairie de Saint-Léger-Les-Vignes","10","DEPLACEMENT","1003","Voiture partagée","100301","Aire de covoiturage","Non Renseigné","SAINT-LEGER-LES-VIGNES","Rue de Nantes","","","44710","[ 47.1367028327517 , -1.72710127303152]"
"4316","Aire de covoiturage Frachon","10","DEPLACEMENT","1003","Voiture partagée","100301","Aire de covoiturage","Non Renseigné","ST-HERBLAIN","Boulevard Salvador Allende","","","44800","[ 47.2184797159027 , -1.62157240555264]"
"4317","Aire de covoiturage de la Planchonnais","10","DEPLACEMENT","1003","Voiture partagée","100301","Aire de covoiturage","Non Renseigné","SAINTE-LUCE-SUR-LOIRE","Rue de la Planchonnais","","","44980","[ 47.2529809902532 , -1.47507408048735]"
"4319","Parking Les Fonderies","10","DEPLACEMENT","1005","Parc en Enclos","","","Non Renseigné","NANTES","Rue de la Porte Gellée","","","44200","[ 47.2049704647258 , -1.54433295436521]"
"4320","Parking Feydeau","10","DEPLACEMENT","1001","Parking Ouvrage","100101","Souterrain","Non Renseigné","NANTES","Parvis Neptune","","","44000","[ 47.2140752998708 , -1.55255878352104]"
"4340","P+R tram-train Babinière","10","DEPLACEMENT","1002","Parc Relais","100203","Libre","Non Renseigné","LA-CHAPELLE-SUR-ERDRE","Avenue de la Babinière","","","44240","[ 47.2595965577586 , -1.54622476875122]"
"4341","Gare tram-train Babinière","10","DEPLACEMENT","1004","Transport en commun","100403","Rail","Non Renseigné","LA-CHAPELLE-SUR-ERDRE","Avenue de la Babinière","08 10 32 43 24","www.ter-sncf.com","44240","[ 47.2595557429368 , -1.54559364953307]"
"4342","P+R tram-train La Chapelle-sur-Erdre Centre Est","10","DEPLACEMENT","1002","Parc Relais","100203","Libre","Non Renseigné","LA-CHAPELLE-SUR-ERDRE","Rue de l'Erdre","","","44240","[ 47.2978015412892 , -1.54771562542556]"
"4343","Gare tram-train La Chapelle-Centre","10","DEPLACEMENT","1004","Transport en commun","100403","Rail","Non Renseigné","LA-CHAPELLE-SUR-ERDRE","Rue de l'Erdre","08 10 32 43 24","www.ter-sncf.com","44240","[ 47.2974860226491 , -1.54808020326863]"
"4344","P+R tram-train La Chapelle-Aulnay Est","10","DEPLACEMENT","1002","Parc Relais","100203","Libre","Non Renseigné","LA-CHAPELLE-SUR-ERDRE","Avenue du Manoir","","","44240","[ 47.3083888002604 , -1.54104919057664]"
"4345","Gare tram-train La Chapelle-Aulnay","10","DEPLACEMENT","1004","Transport en commun","100403","Rail","Non Renseigné","LA-CHAPELLE-SUR-ERDRE","Avenue du Manoir","08 10 32 43 24","www.ter-sncf.com","44240","[ 47.3086811231164 , -1.54151123189203]"
"4346","P+R tram-train La Chapelle Erdre Active","10","DEPLACEMENT","1002","Parc Relais","100203","Libre","Non Renseigné","LA-CHAPELLE-SUR-ERDRE","Rue de la Bérangerais","","","44240","[ 47.2831147498899 , -1.544344098146]"
"4347","Gare tram-train Erdre-Active","10","DEPLACEMENT","1004","Transport en commun","100403","Rail","Non Renseigné","LA-CHAPELLE-SUR-ERDRE","Rue de la Bérangerais","08 10 32 43 24","www.ter-sncf.com","44240","[ 47.2828497270964 , -1.54452233078279]"
"4553","P+R tram-train La Chapelle-sur-Erdre Centre Ouest","10","DEPLACEMENT","1002","Parc Relais","100203","Libre","Non Renseigné","LA-CHAPELLE-SUR-ERDRE","Avenue de la Gare","","","44240","[ 47.2968761970388 , -1.54876772911246]"
"4554","P+R tram-train La Chapelle-Aulnay Ouest","10","DEPLACEMENT","1002","Parc Relais","100203","Libre","Non Renseigné","LA-CHAPELLE-SUR-ERDRE","Avenue Olympe de Gouges","","","44240","[ 47.3079307861029 , -1.54367742164992]"
"4555","P+R TER Gare de Basse-Indre Nord","10","DEPLACEMENT","1002","Parc Relais","100203","Libre","Non Renseigné","ST-HERBLAIN","Rue de la Gare","","","44800","[ 47.2043736318374 , -1.66058829388856]"
"4556","P+R chronobus Papillons","10","DEPLACEMENT","1002","Parc Relais","100203","Libre","Non Renseigné","LES-SORINIERES","Rue des Papillons","","","44840","[ 47.1470165062331 , -1.51857237049049]"
"4562","70 Station Accueil Gare Sud 2","10","DEPLACEMENT","1006","Vélo","100601","Bicloo","Non Renseigné","NANTES","Quai Malakoff","01 30 79 33 44","www.bicloo.nantesmetropole.fr","44000","[ 47.2154852089099 , -1.54293730193395]"
"4563","Station Saint-Donatien","10","DEPLACEMENT","1003","Voiture partagée","100302","Marguerite","Non Renseigné","NANTES","Place du 51ième RA","02 40 58 44 14","www.imarguerite.com","44000","[ 47.228935299112 , -1.54052829088581]"
"4564","Station Tripode","10","DEPLACEMENT","1003","Voiture partagée","100302","Marguerite","Non Renseigné","NANTES","Boulevard Général de Gaulle","02 40 58 44 14","http://www.imarguerite.com","44200","[ 47.2074400449769 , -1.54017656001374]"
"4565","Station Sourdille","10","DEPLACEMENT","1003","Voiture partagée","100302","Marguerite","Non Renseigné","NANTES","4 Place Anatole France","02 40 58 44 14","www.imarguerite.com","44000","[ 47.2244525630143 , -1.57128842131348]"
"4568","Station Rond-Point Rennes","10","DEPLACEMENT","1003","Voiture partagée","100302","Marguerite","Non Renseigné","NANTES","3 Boulevard Lelasseur","02 40 58 44 14","www.imarguerite.com","44000","[ 47.2329047361932 , -1.56631991306045]"
"4610","Pirmil (consigne)","10","DEPLACEMENT","1006","Vélo","100603","Stationnement vélo","Non Renseigné","NANTES","Rue Esnoult des Châtelets","","","44200","[ 47.1957981746053 , -1.54346489622615]"
"4611","Pont Rousseau (collectif sécurisé)","10","DEPLACEMENT","1006","Vélo","100603","Stationnement vélo","Non Renseigné","REZE","Rue de la Gare","","","44400","[ 47.1925455277881 , -1.54875232924884]"
"4612","8 Mai (collectif abrité)","10","DEPLACEMENT","1006","Vélo","100603","Stationnement vélo","Non Renseigné","REZE","Place du 8 Mai 1945","","","44400","[ 47.1892249669309 , -1.55184420816495]"
"4613","Trocardière (consigne)","10","DEPLACEMENT","1006","Vélo","100603","Stationnement vélo","Non Renseigné","REZE","Avenue Léon Blum","","","44400","[ 47.1833772889033 , -1.57029190539333]"
"4614","Grande ouche (consigne)","10","DEPLACEMENT","1006","Vélo","100603","Stationnement vélo","Non Renseigné","BOUGUENAIS","Impasse de la Boisselée","","","44340","[ 47.1817223736954 , -1.57958857608825]"
"4615","Neustrie (consigne)","10","DEPLACEMENT","1006","Vélo","100603","Stationnement vélo","Non Renseigné","BOUGUENAIS","Rue Christophe Colomb","","","44340","[ 47.1768126188673 , -1.59310087276357]"
"4617","Gréneraie (collectif abrité)","10","DEPLACEMENT","1006","Vélo","100603","Stationnement vélo","Non Renseigné","NANTES","1 Boulevard Emile Gabory","","","44200","[ 47.1996720650986 , -1.53310758222232]"
"4618","Gréneraie (collectif sécurisé)","10","DEPLACEMENT","1006","Vélo","100603","Stationnement vélo","Non Renseigné","NANTES","1 Boulevard Emile Gabory","","","44200","[ 47.1997403128977 , -1.53317264504497]"
"4619","Mauvoisins (consigne)","10","DEPLACEMENT","1006","Vélo","100603","Stationnement vélo","Non Renseigné","NANTES","Rue de la Gilarderie","","","44200","[ 47.1902113576369 , -1.52540142790408]"
"4620","Bourdonnières (consignes)","10","DEPLACEMENT","1006","Vélo","100603","Stationnement vélo","Non Renseigné","NANTES","61 Rue des Bourdonnières","","","44200","[ 47.1865473532912 , -1.52140876908587]"
"4622","Porte de Vertou (consigne)","10","DEPLACEMENT","1006","Vélo","100603","Stationnement vélo","Non Renseigné","VERTOU","Boulevard Auguste Priou","","","44120","[ 47.1806310732837 , -1.50530476926916]"
"4623","Pas Enchantés (collectif abrité)","10","DEPLACEMENT","1006","Vélo","100603","Stationnement vélo","Non Renseigné","ST-SEBASTIEN","Rue de la Boulogne","","","44230","[ 47.2069030184953 , -1.5112538842536]"
"4624","Pas enchantés abrité (collectif abrité)","10","DEPLACEMENT","1006","Vélo","100603","Stationnement vélo","Non Renseigné","ST-SEBASTIEN","Rue du Docteur Paul Michaux","","","44230","[ 47.2066446600389 , -1.51055928386024]"
"4625","Frêne Rond (collectif sécurisé)","10","DEPLACEMENT","1006","Vélo","100603","Stationnement vélo","Non Renseigné","ST-SEBASTIEN","Rue de la Jaunaie","","","44230","[ 47.1903041814266 , -1.49603983660328]"
"4626","Frêne Rond (collectif abrité)","10","DEPLACEMENT","1006","Vélo","100603","Stationnement vélo","Non Renseigné","ST-SEBASTIEN","Rue de la Jaunaie","","","44230","[ 47.1903642806595 , -1.49588744088622]"
"4627","Gare de Vertou (collectif abrité)","10","DEPLACEMENT","1006","Vélo","100603","Stationnement vélo","Non Renseigné","VERTOU","Allée du 30 Décembre 1866","","","44120","[ 47.1862775643044 , -1.47798363700849]"
"4628","Gare de Vertou (collectif sécurisé)","10","DEPLACEMENT","1006","Vélo","100603","Stationnement vélo","Non Renseigné","VERTOU","Rue du Bois Rigaud","","","44120","[ 47.1858485633002 , -1.47801423897547]"
"4629","Gare Sud (collectif abrité)","10","DEPLACEMENT","1006","Vélo","100603","Stationnement vélo","Non Renseigné","NANTES","Rue de Lourmel","","","44000","[ 47.2161546501301 , -1.54186762001945]"
"4630","Gare Sud (collectif sécurisé)","10","DEPLACEMENT","1006","Vélo","100603","Stationnement vélo","Non Renseigné","NANTES","Rue de Lourmel","","","44000","[ 47.2161850343243 , -1.54167126990616]"
"4631","Gare nord (collectif abrité)","10","DEPLACEMENT","1006","Vélo","100603","Stationnement vélo","Non Renseigné","NANTES","51 Boulevard de Stalingrad","","","44000","[ 47.2173064334307 , -1.54344396660319]"
"4632","Beaujoire (consigne)","10","DEPLACEMENT","1006","Vélo","100603","Stationnement vélo","Non Renseigné","NANTES","Boulevard de la Beaujoire","","","44300","[ 47.259187277673 , -1.52566317911064]"
"4633","Gare de Mauves (consigne)","10","DEPLACEMENT","1006","Vélo","100603","Stationnement vélo","Non Renseigné","MAUVES-SUR-LOIRE","2 Place de la Gare","","","44470","[ 47.2930095075134 , -1.38964150683711]"
"4634","Recteur Schmitt (consigne)","10","DEPLACEMENT","1006","Vélo","100603","Stationnement vélo","Non Renseigné","NANTES","Rue Recteur Schmitt","","","44300","[ 47.2520617543628 , -1.55248886690146]"
"4635","Grand Val (consigne)","10","DEPLACEMENT","1006","Vélo","100603","Stationnement vélo","Non Renseigné","ORVAULT","Boulevard Mendès France","","","44700","[ 47.2618808709343 , -1.5920230802473]"
"4636","Morlière Paquelais (consigne)","10","DEPLACEMENT","1006","Vélo","100603","Stationnement vélo","Non Renseigné","ORVAULT","Avenue de la Morlière","","","44700","[ 47.2477519931616 , -1.60278903485486]"
"4637","Marcel Paul (collectif abrité)","10","DEPLACEMENT","1006","Vélo","100603","Stationnement vélo","Non Renseigné","ST-HERBLAIN","73 Boulevard Marcel Paul","","","44800","[ 47.2456958650382 , -1.61758050075146]"
"4638","Bignon (consigne)","10","DEPLACEMENT","1006","Vélo","100603","Stationnement vélo","Non Renseigné","ORVAULT","Rue des Verts Prés","","","44700","[ 47.2489560952294 , -1.5978903457391]"
"4639","Plaisance (collectif abrité)","10","DEPLACEMENT","1006","Vélo","100603","Stationnement vélo","Non Renseigné","ST-HERBLAIN","Route de Vannes","","","44800","[ 47.2408711985673 , -1.59305566366749]"
"4640","Neruda (consigne)","10","DEPLACEMENT","1006","Vélo","100603","Stationnement vélo","Non Renseigné","ST-HERBLAIN","Boulevard Salvador Allende","","","44800","[ 47.2179397943275 , -1.6142614951031]"
"4641","Mitterrand (consigne)","10","DEPLACEMENT","1006","Vélo","100603","Stationnement vélo","Non Renseigné","ST-HERBLAIN","Boulevard François Mitterrand","","","44800","[ 47.2220041796063 , -1.63924595395762]"
"4642","Place du vieux cimetiere (consigne)","10","DEPLACEMENT","1006","Vélo","100603","Stationnement vélo","Non Renseigné","CARQUEFOU","1 Place de la Poste","","","44470","[ 47.296766258262 , -1.49175134677826]"
"4643","Hangar à bananes (consigne)","10","DEPLACEMENT","1006","Vélo","100603","Stationnement vélo","Non Renseigné","NANTES","Boulevard des Antilles","","","44200","[ 47.1998976565815 , -1.57282043522859]"
"4644","Pirmil (collectif sécurisé)","10","DEPLACEMENT","1006","Vélo","100603","Stationnement vélo","Non Renseigné","NANTES","Rue Esnoult des Châtelets","","","44200","[ 47.19643496899 , -1.54289738351578]"
"4645","Pirmil (collectif abrité)","10","DEPLACEMENT","1006","Vélo","100603","Stationnement vélo","Non Renseigné","NANTES","Rue Esnoult des Châtelets","","","44200","[ 47.1965912137759 , -1.54258773105948]"
"4646","Maraicher (consigne)","10","DEPLACEMENT","1006","Vélo","100603","Stationnement vélo","Non Renseigné","VERTOU","Rue de la Grand' Maison","","","44120","[ 47.1850493577924 , -1.5106947981432]"
"4647","Vertou gare routière (consigne)","10","DEPLACEMENT","1006","Vélo","100603","Stationnement vélo","Non Renseigné","VERTOU","Rue de l'Hôpital","","","44120","[ 47.168887571532 , -1.47124094524049]"
"4648","3 Moulins (consigne)","10","DEPLACEMENT","1006","Vélo","100603","Stationnement vélo","Non Renseigné","REZE","Rue Jules Laisné","","","44400","[ 47.1782613214724 , -1.54414757085278]"
"4649","Place de la Mairie (consigne)","10","DEPLACEMENT","1006","Vélo","100603","Stationnement vélo","Non Renseigné","LES-SORINIERES","Rue Georges Clemenceau","","","44840","[ 47.148577159754 , -1.53119246068493]"
"4650","Diderot (consigne)","10","DEPLACEMENT","1006","Vélo","100603","Stationnement vélo","Non Renseigné","REZE","Avenue de la Vendée","","","44400","[ 47.1842394225963 , -1.56267840330244]"
"4651","Gare de Thouaré (collectif abrité)","10","DEPLACEMENT","1006","Vélo","100603","Stationnement vélo","Non Renseigné","THOUARE-SUR-LOIRE","Rue des Ponts","","","44470","[ 47.265075184061 , -1.4407738737368]"
"4652","Haluchère (collectif sécurisé)","10","DEPLACEMENT","1006","Vélo","100603","Stationnement vélo","Non Renseigné","NANTES","Rue de la Petite Baratte","","","44300","[ 47.2499301821665 , -1.52329496712317]"
"4653","Haluchère (collectif abrité)","10","DEPLACEMENT","1006","Vélo","100603","Stationnement vélo","Non Renseigné","NANTES","Rue du Ranzai","","","44300","[ 47.2493238043208 , -1.52351733617212]"
"4654","Ranzay (collectif sécurisé)","10","DEPLACEMENT","1006","Vélo","100603","Stationnement vélo","Non Renseigné","NANTES","Rue du Port Durand","","","44300","[ 47.2530223101536 , -1.53010640990383]"
"4655","Babinière (collectif sécurisé)","10","DEPLACEMENT","1006","Vélo","100603","Stationnement vélo","Non Renseigné","LA-CHAPELLE-SUR-ERDRE","Avenue de la Babinière","","","44240","[ 47.2591209564933 , -1.54570443679286]"
"4659","René Cassin (consigne)","10","DEPLACEMENT","1006","Vélo","100603","Stationnement vélo","Non Renseigné","NANTES","Boulevard René Cassin","","","44300","[ 47.2641310470309 , -1.57525334895343]"
"4660","Bout des Pavés (consigne)","10","DEPLACEMENT","1006","Vélo","100603","Stationnement vélo","Non Renseigné","ORVAULT","Rue Alberto Giacometti","","","44700","[ 47.2531588402103 , -1.57648890806529]"
"4661","Pont du Cens (consigne)","10","DEPLACEMENT","1006","Vélo","100603","Stationnement vélo","Non Renseigné","ORVAULT","Route de Rennes","","","44300","[ 47.2487487442748 , -1.57694786773576]"
"4662","Place Eglise (consigne)","10","DEPLACEMENT","1006","Vélo","100603","Stationnement vélo","Non Renseigné","ORVAULT","Rue Marcel Deniau","","","44700","[ 47.2709528330289 , -1.62362612028793]"
"4663","Sautron terminus (consigne)","10","DEPLACEMENT","1006","Vélo","100603","Stationnement vélo","Non Renseigné","SAUTRON","Rue de la Ferme","","","44880","[ 47.2643013045783 , -1.67954132186688]"
"4664","Rue du Grignon (consigne)","10","DEPLACEMENT","1006","Vélo","100603","Stationnement vélo","Non Renseigné","BASSE-GOULAINE","Rue du Grignon","","","44115","[ 47.2165826086764 , -1.46662847481612]"
"4665","Le Pellerin terminus ligne express (consigne)","10","DEPLACEMENT","1006","Vélo","100603","Stationnement vélo","Non Renseigné","LE-PELLERIN","1D Place du Champ de Foire","","","44640","[ 47.2016906204319 , -1.75914765630664]"
"4666","Bois Raguenet (consigne)","10","DEPLACEMENT","1006","Vélo","100603","Stationnement vélo","Non Renseigné","ORVAULT","RD 42","","","44700","[ 47.2666841537853 , -1.60019286196922]"
"4667","Mairie Doulon (consigne)","10","DEPLACEMENT","1006","Vélo","100603","Stationnement vélo","Non Renseigné","NANTES","Boulevard Louis Millet","","","44300","[ 47.2272623959969 , -1.51864649049279]"
"4668","Clos Toreau (consigne)","10","DEPLACEMENT","1006","Vélo","100603","Stationnement vélo","Non Renseigné","NANTES","31 Boulevard Emile Gabory","","","44200","[ 47.1940516169258 , -1.52885900806199]"
"4669","Landreau (consigne)","10","DEPLACEMENT","1006","Vélo","100603","Stationnement vélo","Non Renseigné","NANTES","Rue du Landreau","","","44300","[ 47.2319371786797 , -1.51567406613419]"
"4670","Santos Dumont (consigne)","10","DEPLACEMENT","1006","Vélo","100603","Stationnement vélo","Non Renseigné","NANTES","Rue des Renards","","","44300","[ 47.2593409223094 , -1.56817518277345]"
"4671","Joliverie (consigne)","10","DEPLACEMENT","1006","Vélo","100603","Stationnement vélo","Non Renseigné","NANTES","Route de Clisson","","","44200","[ 47.1894640076848 , -1.51713731231873]"
"4672","Gare de Chantenay (consigne)","10","DEPLACEMENT","1006","Vélo","100603","Stationnement vélo","Non Renseigné","NANTES","Rue de la Gare de Chantenay","","","44100","[ 47.1974776824377 , -1.59432064444371]"
"4673","Croix bonneau (sécurisé)","10","DEPLACEMENT","1006","Vélo","100603","Stationnement vélo","Non Renseigné","NANTES","162 Rue des Pavillons","","","44100","[ 47.2093793060207 , -1.59590574852204]"
"4674","Egalité (sécurisé)","10","DEPLACEMENT","1006","Vélo","100603","Stationnement vélo","Non Renseigné","NANTES","Boulevard Léon Jouhaux","","","44100","[ 47.2096388936158 , -1.58893567488989]"
"4675","Grammoire (consigne)","10","DEPLACEMENT","1006","Vélo","100603","Stationnement vélo","Non Renseigné","VERTOU","Rue Charles Chollet","","","44120","[ 47.1648832031388 , -1.48057265753418]"
"4676","Croix Jeannette (consigne)","10","DEPLACEMENT","1006","Vélo","100603","Stationnement vélo","Non Renseigné","BOUGUENAIS","2 Rue Eugène Pottier","","","44340","[ 47.1753881988944 , -1.62381734883414]"
"4677","Les Couets (consigne)","10","DEPLACEMENT","1006","Vélo","100603","Stationnement vélo","Non Renseigné","BOUGUENAIS","2 Rue de la Chapelle","","","44340","[ 47.1810398624057 , -1.58619217039791]"
"4679","Durantière piscine (consigne)","10","DEPLACEMENT","1006","Vélo","100603","Stationnement vélo","Non Renseigné","NANTES","Rue de la Durantière","","","44100","[ 47.2130698340315 , -1.59874322411545]"
"4680","La Montagne Pompiers (consigne)","10","DEPLACEMENT","1006","Vélo","100603","Stationnement vélo","Non Renseigné","LA-MONTAGNE","Rue de la Courante","","","44620","[ 47.1884394201389 , -1.68921544482741]"
"4681","Route des Sorinières (consigne)","10","DEPLACEMENT","1006","Vélo","100603","Stationnement vélo","Non Renseigné","VERTOU","Route des Sorinières","","","44120","[ 47.1654311212652 , -1.48624898868314]"
"4682","Zola (consigne)","10","DEPLACEMENT","1006","Vélo","100603","Stationnement vélo","Non Renseigné","NANTES","Rue des Renardières","","","44100","[ 47.2139678449895 , -1.58630587536017]"
"4683","Sainte Luce De Gaulle (consigne)","10","DEPLACEMENT","1006","Vélo","100603","Stationnement vélo","Non Renseigné","SAINTE-LUCE-SUR-LOIRE","Allée des Nations Unies","","","44980","[ 47.2501416083484 , -1.48494815620147]"
"4684","Neustrie (consigne)","10","DEPLACEMENT","1006","Vélo","100603","Stationnement vélo","Non Renseigné","BOUGUENAIS","Rue Christophe Colomb","","","44340","[ 47.1768261386391 , -1.59299763887125]"
"4685","Mitterrand (consigne)","10","DEPLACEMENT","1006","Vélo","100603","Stationnement vélo","Non Renseigné","ST-HERBLAIN","Boulevard François Mitterrand","","","44800","[ 47.2220008415411 , -1.63953075892652]"
"4686","Gare de Mauves (consigne)","10","DEPLACEMENT","1006","Vélo","100603","Stationnement vélo","Non Renseigné","MAUVES-SUR-LOIRE","2 Place de la Gare","","","44470","[ 47.2930302010769 , -1.38965327436549]"
"4687","Chapeau vernis (consigne)","10","DEPLACEMENT","1006","Vélo","100603","Stationnement vélo","Non Renseigné","ST-SEBASTIEN","Rue des Ecobuts","","","44230","[ 47.189347335877 , -1.51129606262763]"
"4688","Beausejour (consigne)","10","DEPLACEMENT","1006","Vélo","100603","Stationnement vélo","Non Renseigné","NANTES","Rue du Chêne Vert","","","44100","[ 47.2385865683461 , -1.5875971384072]"
"4689","St Félix (consigne)","10","DEPLACEMENT","1006","Vélo","100603","Stationnement vélo","Non Renseigné","NANTES","2 Boulevard Michelet","","","44000","[ 47.2309462592658 , -1.5567462861965]"
"4691","Michelet (consigne)","10","DEPLACEMENT","1006","Vélo","100603","Stationnement vélo","Non Renseigné","NANTES","Rue de la Lombarderie","","","44300","[ 47.234739677265 , -1.55679331148077]"
"4692","Piscine (consigne)","10","DEPLACEMENT","1006","Vélo","100603","Stationnement vélo","Non Renseigné","VERTOU","Rue Sèvre et Maine","","","44120","[ 47.1647711452281 , -1.46937482308132]"
"4693","Ragon (consigne)","10","DEPLACEMENT","1006","Vélo","100603","Stationnement vélo","Non Renseigné","REZE","Place du champ de foire du Ragon","","","44400","[ 47.165370765273 , -1.54222052093205]"
"4694","Papotière (consigne)","10","DEPLACEMENT","1006","Vélo","100603","Stationnement vélo","Non Renseigné","SAINTE-LUCE-SUR-LOIRE","Rue de la Planchonnais","","","44980","[ 47.2532938084695 , -1.47486330373227]"
"4695","La Minais (consigne)","10","DEPLACEMENT","1006","Vélo","100603","Stationnement vélo","Non Renseigné","SAINTE-LUCE-SUR-LOIRE","Route de Thouaré","","","44980","[ 47.2570468971606 , -1.46604870833721]"
"4696","Place du Vieux Doulon (consigne)","10","DEPLACEMENT","1006","Vélo","100603","Stationnement vélo","Non Renseigné","NANTES","Place du Vieux Doulon","","","44300","[ 47.2352385611695 , -1.50293546936691]"
"4697","Gare de Chantenay (consigne)","10","DEPLACEMENT","1006","Vélo","100603","Stationnement vélo","Non Renseigné","NANTES","Rue de la Gare de Chantenay","","","44100","[ 47.1976766950814 , -1.5943298425406]"
"4698","Rue du Prieuré (consigne)","10","DEPLACEMENT","1006","Vélo","100603","Stationnement vélo","Non Renseigné","SAINT-JEAN-DE-BOISEAU","Rue des Frères Gohaud","","","44640","[ 47.1956612294567 , -1.72505654870234]"
"4699","Maillardière (consigne)","10","DEPLACEMENT","1006","Vélo","100603","Stationnement vélo","Non Renseigné","LES-SORINIERES","29 Rue de la Maillardière","","","44840","[ 47.1571883814583 , -1.52299322796899]"
"4700","Papillon (consigne)","10","DEPLACEMENT","1006","Vélo","100603","Stationnement vélo","Non Renseigné","LES-SORINIERES","50 Rue des Papillons","","","44840","[ 47.1467213882786 , -1.51891022584835]"
"4702","La Chantrerie (abrité)","10","DEPLACEMENT","1006","Vélo","100603","Stationnement vélo","Non Renseigné","NANTES","Route de Gachet","","","44300","[ 47.2822590665995 , -1.51786707198478]"
"4703","La Chantrerie (sécurisé)","10","DEPLACEMENT","1006","Vélo","100603","Stationnement vélo","Non Renseigné","NANTES","Route de Gachet","","","44300","[ 47.2821196424734 , -1.51767304799494]"
"4704","Gare Bouaye (abri plus sécurisé)","10","DEPLACEMENT","1006","Vélo","100603","Stationnement vélo","Non Renseigné","BOUAYE","65 Rue de la Gare","","","44830","[ 47.1381998229963 , -1.68130210658714]"
"4705","Gare de Basse Indre (consigne)","10","DEPLACEMENT","1006","Vélo","100603","Stationnement vélo","Non Renseigné","ST-HERBLAIN","Rue de la Gare","","","44800","[ 47.2042349000559 , -1.66014731884854]"
"4707","Gare maritime (consigne)","10","DEPLACEMENT","1006","Vélo","100603","Stationnement vélo","Non Renseigné","NANTES","Quai Ernest Renaud","","","44100","[ 47.2062719751404 , -1.57271646451042]"
"4708","Gare nord parking (sécurisé)","10","DEPLACEMENT","1006","Vélo","100603","Stationnement vélo","Non Renseigné","NANTES","51 Boulevard de Stalingrad","","","44000","[ 47.2170735573853 , -1.54387627842632]"
"4709","Gare nord parking (abrité)","10","DEPLACEMENT","1006","Vélo","100603","Stationnement vélo","Non Renseigné","NANTES","51 Boulevard de Stalingrad","","","44000","[ 47.2171385191864 , -1.54391839978149]"
"4710","Saint Jean de Boiseau (consigne)","10","DEPLACEMENT","1006","Vélo","100603","Stationnement vélo","Non Renseigné","SAINT-JEAN-DE-BOISEAU","Rue de la Croix Truin","","","44640","[ 47.1913349733155 , -1.71207075561716]"
"4711","Souillarderie (consigne)","10","DEPLACEMENT","1006","Vélo","100603","Stationnement vélo","Non Renseigné","NANTES","Rue des Tamaris","","","44300","[ 47.2379873688937 , -1.51609083959552]"
"4712","Bout des Pavés (consigne)","10","DEPLACEMENT","1006","Vélo","100603","Stationnement vélo","Non Renseigné","NANTES","Boulevard de la Chauvinière","","","44300","[ 47.2531822038242 , -1.57599666234132]"
"4713","Pont Rousseau (consigne)","10","DEPLACEMENT","1006","Vélo","100603","Stationnement vélo","Non Renseigné","REZE","Rue de la Gare","","","44400","[ 47.1931315247372 , -1.54879737366258]"
"4714","Durantière (consigne)","10","DEPLACEMENT","1006","Vélo","100603","Stationnement vélo","Non Renseigné","NANTES","Rue de la Durantière","","","44100","[ 47.2131821023372 , -1.60022961829846]"
"4715","Coueron Even (consigne)","10","DEPLACEMENT","1006","Vélo","100603","Stationnement vélo","Non Renseigné","COUERON","9 Place Charles De Gaulle","","","44220","[ 47.2120549891611 , -1.72697210155762]"
"4716","Trentmoult Roquios (collectif abrité)","10","DEPLACEMENT","1006","Vélo","100603","Stationnement vélo","Non Renseigné","REZE","Allée Claude Choëmet","","","44400","[ 47.1952588177616 , -1.57811263716694]"
"4717","Frachon (collectif abrité)","10","DEPLACEMENT","1006","Vélo","100603","Stationnement vélo","Non Renseigné","ST-HERBLAIN","Boulevard Salvador Allende","","","44800","[ 47.2188916275261 , -1.6202838660535]"
"4718","Neruda (collectif abrité)","10","DEPLACEMENT","1006","Vélo","100603","Stationnement vélo","Non Renseigné","ST-HERBLAIN","Boulevard Salvador Allende","","","44800","[ 47.217858407968 , -1.61402386984358]"
"4720","Gare de Basse Indre (collectif abrité)","10","DEPLACEMENT","1006","Vélo","100603","Stationnement vélo","Non Renseigné","ST-HERBLAIN","Rue de la Gare","","","44800","[ 47.2042882753782 , -1.66033541953291]"
"4721","Gare de Bouaye (collectif abrité)","10","DEPLACEMENT","1006","Vélo","100603","Stationnement vélo","Non Renseigné","BOUAYE","65 Rue de la Gare","","","44830","[ 47.1381893242158 , -1.68120547935829]"
"4722","Gare de Coueron (collectif abrité)","10","DEPLACEMENT","1006","Vélo","100603","Stationnement vélo","Non Renseigné","COUERON","108 Rue Alexandre Olivier","","","44220","[ 47.2217826034187 , -1.72352737769722]"
"4723","Gare de Thouaré (collectif abrité)","10","DEPLACEMENT","1006","Vélo","100603","Stationnement vélo","Non Renseigné","THOUARE-SUR-LOIRE","Rue des Ponts","","","44470","[ 47.264990123961 , -1.44112177559474]"
"4724","Gare de Vertou (collectif abrité)","10","DEPLACEMENT","1006","Vélo","100603","Stationnement vélo","Non Renseigné","VERTOU","Rue du Bois Rigaud","","","44120","[ 47.185862956777 , -1.47804195086816]"
"4725","Pas enchantés abrité (collectif abrité)","10","DEPLACEMENT","1006","Vélo","100603","Stationnement vélo","Non Renseigné","ST-SEBASTIEN","Rue du Docteur Paul Michaux","","","44230","[ 47.2066731263519 , -1.51061578215125]"
"4726","Goudy (collectif abrité)","10","DEPLACEMENT","1006","Vélo","100603","Stationnement vélo","Non Renseigné","NANTES","11 Rue Gabriel Goudy","","","44200","[ 47.1956815426243 , -1.54079167962344]"
"4727","Gare de Chantenay (collectif abrité)","10","DEPLACEMENT","1006","Vélo","100603","Stationnement vélo","Non Renseigné","NANTES","Rue de la Gare de Chantenay","","","44100","[ 47.1972833040936 , -1.59460859492635]"
"4728","Gare sud 4 (collectif sécurisé)","10","DEPLACEMENT","1006","Vélo","100603","Stationnement vélo","Non Renseigné","NANTES","Rue Marcel Paul","","","44000","[ 47.2150965053519 , -1.53799063632782]"
"4729","Le Cardo (collectif sécurisé)","10","DEPLACEMENT","1006","Vélo","100603","Stationnement vélo","Non Renseigné","ORVAULT","Rue du Wattman","","","44700","[ 47.2623914543365 , -1.58440437097679]"
"4730","Mitterrand (collectif sécurisé)","10","DEPLACEMENT","1006","Vélo","100603","Stationnement vélo","Non Renseigné","ST-HERBLAIN","Boulevard François Mitterrand","","","44800","[ 47.221943737127 , -1.63953854745182]"
"4731","Cité des Congrès (collectif sécurisé)","10","DEPLACEMENT","1006","Vélo","100603","Stationnement vélo","Non Renseigné","NANTES","Rue de Valmy","","","44000","[ 47.2136446365615 , -1.54408370542533]"
"4732","Commerce (collectif sécurisé)","10","DEPLACEMENT","1006","Vélo","100603","Stationnement vélo","Non Renseigné","NANTES","Place du Commerce","","","44000","[ 47.2133194962897 , -1.55780980234499]"
"4733","Decré / Bouffay (collectif sécurisé)","10","DEPLACEMENT","1006","Vélo","100603","Stationnement vélo","Non Renseigné","NANTES","18 Rue du Moulin","","","44000","[ 47.2166660527285 , -1.55423648573523]"
"4734","Foch Cathédrale (collectif sécurisé)","10","DEPLACEMENT","1006","Vélo","100603","Stationnement vélo","Non Renseigné","NANTES","6 Rue Sully","","","44000","[ 47.2210180982701 , -1.55126379714879]"
"4735","Graslin (collectif sécurisé)","10","DEPLACEMENT","1006","Vélo","100603","Stationnement vélo","Non Renseigné","NANTES","2 Rue Louis Préaubert","","","44000","[ 47.2145970301062 , -1.56229634339863]"
"4736","Machines (collectif sécurisé)","10","DEPLACEMENT","1006","Vélo","100603","Stationnement vélo","Non Renseigné","NANTES","Rue la Tour d'Auvergne","","","44200","[ 47.2058257915273 , -1.56258620817132]"
"4737","Médiathèque (collectif sécurisé)","10","DEPLACEMENT","1006","Vélo","100603","Stationnement vélo","Non Renseigné","NANTES","Quai de la Fosse","","","44000","[ 47.2108425003292 , -1.56230756152206]"
"4738","Talensac (collectif sécurisé)","10","DEPLACEMENT","1006","Vélo","100603","Stationnement vélo","Non Renseigné","NANTES","Rue Le Nôtre","","","44000","[ 47.2199027391761 , -1.55769331688577]"
"4739","Bretagne (collectif sécurisé)","10","DEPLACEMENT","1006","Vélo","100603","Stationnement vélo","Non Renseigné","NANTES","Rue de l'Abreuvoir","","","44000","[ 47.2178042795128 , -1.55831595116776]"
"4740","Haluchère (collectif abrité)","10","DEPLACEMENT","1006","Vélo","100603","Stationnement vélo","Non Renseigné","NANTES","Rue de la Petite Baratte","","","44300","[ 47.2498994338929 , -1.52325028828019]"
"4741","Haluchère (collectif asécurisé)","10","DEPLACEMENT","1006","Vélo","100603","Stationnement vélo","Non Renseigné","NANTES","Rue du Ranzai","","","44300","[ 47.2492933098569 , -1.52349198770571]"
"4742","Ranzay (collectif abrité)","10","DEPLACEMENT","1006","Vélo","100603","Stationnement vélo","Non Renseigné","NANTES","Rue du Port Durand","","","44300","[ 47.2530662115111 , -1.53019927103207]"
"4743","Marcel Paul (collectif sécurisé)","10","DEPLACEMENT","1006","Vélo","100603","Stationnement vélo","Non Renseigné","ST-HERBLAIN","73 Boulevard Marcel Paul","","","44800","[ 47.2457700226023 , -1.6175244770897]"
"4744","Neustrie (appui-vélo)","10","DEPLACEMENT","1006","Vélo","100603","Stationnement vélo","Non Renseigné","BOUGUENAIS","Rue Christophe Colomb","","","44340","[ 47.1770829434896 , -1.59312665701531]"
"4745","Beauséjour (appui-vélo)","10","DEPLACEMENT","1006","Vélo","100603","Stationnement vélo","Non Renseigné","NANTES","Rue du Chêne Vert","","","44100","[ 47.2380680494216 , -1.5865089094778]"
"4746","Corbinerie (consigne)","10","DEPLACEMENT","1006","Vélo","100603","Stationnement vélo","Non Renseigné","REZE","Rue Ernest Sauvestre","","","44400","[ 47.1617797634634 , -1.54191715193937]"
"4747","Rouet (consigne)","10","DEPLACEMENT","1006","Vélo","100603","Stationnement vélo","Non Renseigné","LES-SORINIERES","50 Rue des Papillons","","","44840","[ 47.1477807782299 , -1.52097760737545]"
"4748","Rue des prés (consigne)","10","DEPLACEMENT","1006","Vélo","100603","Stationnement vélo","Non Renseigné","BRAINS","4 Rue des Prés","","","44830","[ 47.1694366374064 , -1.72293208387035]"
"4749","Saint Herblain (consigne)","10","DEPLACEMENT","1006","Vélo","100603","Stationnement vélo","Non Renseigné","ST-HERBLAIN","Boulevard Charles Gautier","","","44800","[ 47.2222061302278 , -1.60636612247471]"
"4750","Neptune (collectif sécurisé)","10","DEPLACEMENT","1006","Vélo","100603","Stationnement vélo","Non Renseigné","NANTES","Rue Léon Maître","","","44000","[ 47.213890217221 , -1.5526947054328]"
"4751","Locations vélos Commerce","10","DEPLACEMENT","1006","Vélo","100602","Location vélo","Non Renseigné","NANTES","Place du Commerce","","","44000","[ 47.2132213753839 , -1.5579201758517]"
"4752","Locations vélos Gare Nord","10","DEPLACEMENT","1006","Vélo","100602","Location vélo","Non Renseigné","NANTES","Cours John Kennedy","","","44000","[ 47.2169551727437 , -1.54411278187315]"
"4760","Gare tram-train Haluchère-Batignolles","10","DEPLACEMENT","1004","Transport en commun","100403","Rail","Non Renseigné","NANTES","Rue du Ranzai","08 10 32 43 24","www.ter-sncf.com","44300","[ 47.2490411369368 , -1.52259272941917]"
"4764","P+R tram-train Haluchère 2","10","DEPLACEMENT","1002","Parc Relais","100202","Enclos","Non Renseigné","NANTES","14 Rue du Ranzai","02 40 44 44 44","www.tan.fr","44300","[ 47.2502300597845 , -1.52497519560003]"
"4765","P+R chronobus Bois des Anses","10","DEPLACEMENT","1002","Parc Relais","100202","Enclos","Non Renseigné","NANTES","Rue du Bois Briand","","","44300","[ 47.246903862863 , -1.49495327567164]"
"4766","Moulin Boiseau (consigne)","10","DEPLACEMENT","1006","Vélo","100603","Stationnement vélo","Non Renseigné","CARQUEFOU","Boulevard de l'Epinay","","","44470","[ 47.2881528637428 , -1.48386529862208]"
"4767","Rue de Chateaubriand (consigne)","10","DEPLACEMENT","1006","Vélo","100603","Stationnement vélo","Non Renseigné","CARQUEFOU","2 Rue du Marechal Foch","","","44470","[ 47.3040869777935 , -1.48519147433257]"
"4768","Ecole centrale / Sup de co (consigne)","10","DEPLACEMENT","1006","Vélo","100603","Stationnement vélo","Non Renseigné","NANTES","Route de la Jonelière","","","44300","[ 47.2483227755784 , -1.55141569040084]"
"4769","Combattants d'Indochine (consigne)","10","DEPLACEMENT","1006","Vélo","100603","Stationnement vélo","Non Renseigné","NANTES","Rond-Point des Combattants d'Indochine","","","44300","[ 47.2425404874668 , -1.53388785803026]"
"4770","Keren (consigne)","10","DEPLACEMENT","1006","Vélo","100603","Stationnement vélo","Non Renseigné","NANTES","Rue de Kéren","","","44300","[ 47.2448336791445 , -1.53286211850843]"
"4802","Embellie (consigne)","10","DEPLACEMENT","1006","Vélo","100603","Stationnement vélo","Non Renseigné","NANTES","20 Allée de l'Embellie","","","44300","[ 47.2676809581996 , -1.51630018461917]"
"4803","Le Cardo (consigne)","10","DEPLACEMENT","1006","Vélo","100603","Stationnement vélo","Non Renseigné","ORVAULT","1 Esplanade du Cardo","","","44700","[ 47.2621363171528 , -1.58426843671376]"
"4804","Chêne des Anglais (consigne)","10","DEPLACEMENT","1006","Vélo","100603","Stationnement vélo","Non Renseigné","NANTES","3 Rue Eugène Thomas","","","44300","[ 47.2615916064894 , -1.57312981216415]"
"4805","Tertre  (abri collectif)","10","DEPLACEMENT","1006","Vélo","100603","Stationnement vélo","Non Renseigné","ST-HERBLAIN","Boulevard Salvador Allende","","","44800","[ 47.2142903874097 , -1.60795751446787]"
"4806","Viarme/Talensac (consigne)","10","DEPLACEMENT","1006","Vélo","100603","Stationnement vélo","Non Renseigné","NANTES","22 Place Viarme","","","44000","[ 47.2214435807437 , -1.56299414987565]"
"4807","Bd. Doulon (consigne)","10","DEPLACEMENT","1006","Vélo","100603","Stationnement vélo","Non Renseigné","","","","","44300","[ 47.2240354178422 , -1.51990689935172]"
"4808","Gare Maritime (consigne)","10","DEPLACEMENT","1006","Vélo","100603","Stationnement vélo","Non Renseigné","NANTES","2 Rue Meuris","","","44100","[ 47.2073374595625 , -1.57259271840638]"
"4809","Terminus C5 (consigne)","10","DEPLACEMENT","1006","Vélo","100603","Stationnement vélo","Non Renseigné","NANTES","Boulevard des Antilles","","","44200","[ 47.2030346687676 , -1.57105494638846]"
"4810","Prairie au Duc (consigne)","10","DEPLACEMENT","1006","Vélo","100603","Stationnement vélo","Non Renseigné","NANTES","72 Boulevard de la Prairie au Duc","","","44200","[ 47.20406132891 , -1.56585693674417]"
"4811","République (consigne)","10","DEPLACEMENT","1006","Vélo","100603","Stationnement vélo","Non Renseigné","NANTES","Place de la République","","","44200","[ 47.2056044971589 , -1.5543433441152]"
"4812","Gustave Roch (consigne)","10","DEPLACEMENT","1006","Vélo","100603","Stationnement vélo","Non Renseigné","NANTES","8 Boulevard Victor Hugo","","","44200","[ 47.2046247987917 , -1.5536263768254]"
"4813","Conservatoire (consigne)","10","DEPLACEMENT","1006","Vélo","100603","Stationnement vélo","Non Renseigné","NANTES","Rue Docteur Jules Sébilleau","","","44200","[ 47.2066557172681 , -1.53325746313532]"
"4814","Pompidou (consigne)","10","DEPLACEMENT","1006","Vélo","100603","Stationnement vélo","Non Renseigné","NANTES","9 Boulevard Georges Pompidou","","","44200","[ 47.2095692458573 , -1.52705222903656]"
"4815","Gare Erdre Active (abri collectif sécurisé)","10","DEPLACEMENT","1006","Vélo","100603","Stationnement vélo","Non Renseigné","LA-CHAPELLE-SUR-ERDRE","19 Rue de la Bavière","","","44240","[ 47.2833166873894 , -1.54479104024594]"
"4816","Gare Chapelle Centre (abri collectif sécurisé)","10","DEPLACEMENT","1006","Vélo","100603","Stationnement vélo","Non Renseigné","LA-CHAPELLE-SUR-ERDRE","Rue de l'Erdre","","","44240","[ 47.2972769090855 , -1.54799668663311]"
"4817","Gare Chapelle Aulnay (abri collectif sécurisé)","10","DEPLACEMENT","1006","Vélo","100603","Stationnement vélo","Non Renseigné","LA-CHAPELLE-SUR-ERDRE","Avenue de la Gandonnière","","","44240","[ 47.3061824898911 , -1.54358501752658]"
"4818","Chat qui guette (consigne)","10","DEPLACEMENT","1006","Vélo","100603","Stationnement vélo","Non Renseigné","SAINT-JEAN-DE-BOISEAU","4 Rue du Chat qui Guette","","","44640","[ 47.1919519945294 , -1.6967031767221]"
"4819","Station Ladmirault","10","DEPLACEMENT","1003","Voiture partagée","100302","Marguerite","Non Renseigné","NANTES","Place Paul Emile Ladmirault","02 40 58 44 14","www.imarguerite.com","44000","[ 47.2137614033697 , -1.56423877233188]"
"4820","Station Viarme","10","DEPLACEMENT","1003","Voiture partagée","100302","Marguerite","Non Renseigné","NANTES","18 Rue Sarrazin","02 40 58 44 14","www.imarguerite.com","44000","[ 47.2208742958692 , -1.56144843610386]"
"4914","P+R Chronobus Prairie de Mauves","10","DEPLACEMENT","1002","Parc Relais","100203","Libre","Non Renseigné","NANTES","Boulevard de la Prairie de Mauves","","","44300","[ 47.2202558442878 , -1.51585135578417]"
"4921","Station Sainte Anne","10","DEPLACEMENT","1003","Voiture partagée","100302","Marguerite","Non Renseigné","NANTES","3 Place Charles Lechat","","","44100","[ 47.2038729344448 , -1.58080233199404]"
"4922","Station République","10","DEPLACEMENT","1003","Voiture partagée","100302","Marguerite","Non Renseigné","NANTES","7 Place de la République","","","44200","[ 47.2051025882241 , -1.55509166043531]"
"4923","Station Talensac","10","DEPLACEMENT","1003","Voiture partagée","100302","Marguerite","Non Renseigné","NANTES","6 Rue de Talensac","","","44000","[ 47.2212983457253 , -1.55675468556435]"
"4924","Station Saint Clement","10","DEPLACEMENT","1003","Voiture partagée","100302","Marguerite","Non Renseigné","NANTES","7 Rue Lorette de la Refoulais","","","44000","[ 47.2212820798647 , -1.54723195160433]"
"4925","Station Gigant","10","DEPLACEMENT","1003","Voiture partagée","100302","Marguerite","Non Renseigné","NANTES","9 Rue de Gigant","","","44100","[ 47.2142869619048 , -1.56923615633877]"
"4926","Station Maille Brezé","10","DEPLACEMENT","1003","Voiture partagée","100302","Marguerite","Non Renseigné","NANTES","100 Quai de la Fosse","","","44100","[ 47.2074899244075 , -1.57193743729686]"
"4927","Station Lamoricière","10","DEPLACEMENT","1003","Voiture partagée","100302","Marguerite","Non Renseigné","NANTES","15 Rue Lamoricière","","","44100","[ 47.2123097339951 , -1.57150370623196]"
"4928","Station La Bourse","10","DEPLACEMENT","1003","Voiture partagée","100302","Marguerite","Non Renseigné","NANTES","Allée de la Bourse","","","44000","[ 47.21218771847 , -1.55894459500407]"
"4929","Aire de covoiturage Ile Chaland","10","DEPLACEMENT","1003","Voiture partagée","100301","Aire de covoiturage","Non Renseigné","BASSE-GOULAINE","Rue de l'Ile Chaland","","","44115","[ 47.2200953735482 , -1.45218875356649]"
"4930","Aire de covoiturage Bois des Anses","10","DEPLACEMENT","1003","Voiture partagée","100301","Aire de covoiturage","Non Renseigné","NANTES","Route de Sainte Luce","","","44300","[ 47.2470700767198 , -1.49508474866663]"
"4973","Prairie de Mauves (consigne)","10","DEPLACEMENT","1006","Vélo","100603","Stationnement vélo","Non Renseigné","NANTES","Boulevard de la Prairie de Mauves","","","44000","[ 47.2201417786501 , -1.51637273497636]"
"4974","Océan (consigne)","10","DEPLACEMENT","1006","Vélo","100603","Stationnement vélo","Non Renseigné","COUERON","Boulevard de l'Océan","","","44220","[ 47.2135344666285 , -1.73922897811637]"
"4975","Champ de Foire (consigne)","10","DEPLACEMENT","1006","Vélo","100603","Stationnement vélo","Non Renseigné","SAINT-AIGNAN-GRANDLIEU","Route du Champ de Foire","","","44860","[ 47.1245474366259 , -1.61848016100407]"
"4977","Hermeland (consigne)","10","DEPLACEMENT","1006","Vélo","100603","Stationnement vélo","Non Renseigné","ST-HERBLAIN","Esplanade des Quatre Vents","","","44800","[ 47.2305164911809 , -1.61695006466537]"
"4978","Angevinière (consigne)","10","DEPLACEMENT","1006","Vélo","100603","Stationnement vélo","Non Renseigné","ST-HERBLAIN","Avenue de l'Angevinière","","","44800","[ 47.2455229801379 , -1.60828187602942]"
"4979","Chapelle des Anges (consigne)","10","DEPLACEMENT","1006","Vélo","100603","Stationnement vélo","Non Renseigné","ORVAULT","Rue de la Chapelle des Anges","","","44700","[ 47.2749820576904 , -1.63707835336758]"
"4980","Chapelle sur Erdre (consigne)","10","DEPLACEMENT","1006","Vélo","100603","Stationnement vélo","Non Renseigné","LA-CHAPELLE-SUR-ERDRE","Rue de l'Aven","","","44240","[ 47.3061939001201 , -1.56026174347757]"
"4981","Quai Surcouf (consigne)","10","DEPLACEMENT","1006","Vélo","100603","Stationnement vélo","Non Renseigné","REZE","9B Quai Surcouf","","","44400","[ 47.1949288803406 , -1.57789557873385]"
"4982","François Mitterrand (consigne)","10","DEPLACEMENT","1006","Vélo","100603","Stationnement vélo","Non Renseigné","REZE","Place François Mitterrand","","","44400","[ 47.1844768525316 , -1.55951819223863]"
"4983","Piscine (consigne)","10","DEPLACEMENT","1006","Vélo","100603","Stationnement vélo","Non Renseigné","BASSE-GOULAINE","Rue de Tasmanie","","","44115","[ 47.1897325569342 , -1.47222231312136]"
"4984","Grignon (consigne)","10","DEPLACEMENT","1006","Vélo","100603","Stationnement vélo","Non Renseigné","BASSE-GOULAINE","156 Rue du Grignon","","","44115","[ 47.2153004845288 , -1.4755437753354]"
"4985","Métro (consigne)","10","DEPLACEMENT","1006","Vélo","100603","Stationnement vélo","Non Renseigné","NANTES","361 Route de Sainte Luce","","","44300","[ 47.2467680035039 , -1.49555909322296]"
"5021","Aire de covoiturage ""La Ville au Denis""","10","DEPLACEMENT","1003","Voiture partagée","100301","Aire de covoiturage","Nantes Métropole","BOUGUENAIS","Rond-Point de la Ville au Denis","","","44340","[ 47.1630787490619 , -1.62779544174512]"
"5022","Parking CHU 2","10","DEPLACEMENT","1005","Parc en Enclos","","","Non Renseigné","NANTES","Quai Moncousu","","","44000","[ 47.208890253019 , -1.55291388704137]"
"5024","Station Calvaire","10","DEPLACEMENT","1003","Voiture partagée","100302","Marguerite","Non Renseigné","NANTES","1 Rue la Fayette","","","44000","[ 47.2157649874154 , -1.56111806795314]"
"5025","Station Arche Sèche","10","DEPLACEMENT","1003","Voiture partagée","100302","Marguerite","Non Renseigné","NANTES","7 Rue de l'Arche Sèche","","","44000","[ 47.2161075134917 , -1.55842433069549]"
"5029","Aire de covoiturage ""Super U de Bouaye""","10","DEPLACEMENT","1003","Voiture partagée","100301","Aire de covoiturage","Non Renseigné","BOUAYE","Rue de Nantes","","","44830","[ 47.1435536587747 , -1.67983811595075]"
